{
"type": "FeatureCollection",
"name": "ヘリポート位置_9kei",
"crs": { "type": "name", "properties": { "name": "urn:ogc:def:crs:OGC:1.3:CRS84" } },
"features": [
{ "type": "Feature", "properties": { "NO": 1, "X": 558.4986, "Y": -40402.2838, "名称": "東京ヘリポート", "住所": "東京都江東区新木場４丁目", "管理大区分": "東京都", "管理小区分": "東京ヘリポート管理事務所", "管理者連絡": "03-3521-5955", "給油": "可" }, "geometry": { "type": "Point", "coordinates": [ 139.839500000416166, 35.635833333450606 ] } },
{ "type": "Feature", "properties": { "NO": 2, "X": -7437.969, "Y": -36035.4907, "名称": "中央合同庁舎第2号館", "住所": "東京都千代田区霞ヶ関２−１−１", "管理大区分": "総務省", "管理小区分": null, "管理者連絡": "03-5253-5276", "給油": "不可" }, "geometry": { "type": "Point", "coordinates": [ 139.751166666752624, 35.675166666893986 ] } },
{ "type": "Feature", "properties": { "NO": 3, "X": -17995.4644, "Y": -12037.878, "名称": "さいたま広域防災拠点", "住所": "埼玉県さいたま市中央区新都心２−１", "管理大区分": "国土交通省関東地方整備局", "管理小区分": null, "管理者連絡": "048-600-1333", "給油": "不可" }, "geometry": { "type": "Point", "coordinates": [ 139.634000000471843, 35.891333333199768 ] } },
{ "type": "Feature", "properties": { "NO": 4, "X": -17307.5998, "Y": -60761.4816, "名称": "横浜港ミニフロート", "住所": "神奈川県横浜市中区海岸通１丁目1番4号地先", "管理大区分": "国土交通省関東地方整備局", "管理小区分": "港湾空港部", "管理者連絡": "045-211-7045", "給油": "不可" }, "geometry": { "type": "Point", "coordinates": [ 139.642666667206015, 35.452166666532612 ] } },
{ "type": "Feature", "properties": { "NO": 5, "X": -65234.0714, "Y": 35508.8348, "名称": "群馬ヘリポート", "住所": "群馬県前橋市下阿内町３７７−２", "管理大区分": "群馬県企業公社", "管理小区分": "群馬ヘリポート管理事務所", "管理者連絡": "027-265-0100", "給油": "可" }, "geometry": { "type": "Point", "coordinates": [ 139.106833333481546, 36.317833333699888 ] } },
{ "type": "Feature", "properties": { "NO": 6, "X": -79021.0484, "Y": -76073.8359, "名称": "足柄S.A", "住所": "静岡県駿東郡小山町桑木大字南原５９９", "管理大区分": "中日本高速道路", "管理小区分": "御殿場管理事務所", "管理者連絡": "0550-82-3100", "給油": "不可" }, "geometry": { "type": "Point", "coordinates": [ 138.964333333711892, 35.311166666340867 ] } },
{ "type": "Feature", "properties": { "NO": 7, "X": -8919.2512, "Y": -23756.4274, "名称": "荒川下流岩淵", "住所": "東京都北区北志茂５−４１−１", "管理大区分": "国土交通省関東地方整備", "管理小区分": "局荒川下流河川事務所", "管理者連絡": "03-3902-5995", "給油": "不可" }, "geometry": { "type": "Point", "coordinates": [ 139.734666666781948, 35.78583333349949 ] } },
{ "type": "Feature", "properties": { "NO": 8, "X": -19828.9031, "Y": -17747.679, "名称": "秋ヶ瀬", "住所": "埼玉県さいたま市岩槻区道場柳原東２０５０", "管理大区分": "埼玉県", "管理小区分": "交通政策課", "管理者連絡": "0488-30-2235", "給油": "不可" }, "geometry": { "type": "Point", "coordinates": [ 139.613833333473423, 35.839833333319902 ] } },
{ "type": "Feature", "properties": { "NO": 9, "X": -120846.3445, "Y": -47072.9064, "名称": "市川大門", "住所": "山梨県西八代郡市川三郷町押切", "管理大区分": "国土交通省関東地方整備局", "管理小区分": "富士川砂防事務所", "管理者連絡": "0552-52-7156", "給油": "不可" }, "geometry": { "type": "Point", "coordinates": [ 138.500166666654195, 35.568333333473205 ] } },
{ "type": "Feature", "properties": { "NO": 10, "X": -20058.0769, "Y": 84589.7303, "名称": "日光霧降スケートセンター第２駐車場", "住所": "栃木県日光市所野２８５４", "管理大区分": "日光市", "管理小区分": "日光市役所", "管理者連絡": "0288-54-1112", "給油": "不可" }, "geometry": { "type": "Point", "coordinates": [ 139.608666666248212, 36.762166667095627 ] } },
{ "type": "Feature", "properties": { "NO": 11, "X": -17502.4067, "Y": 82790.2194, "名称": "日光市所野公園", "住所": "栃木県日光市所野市営所野公園内", "管理大区分": "日光市", "管理小区分": "日光市役所", "管理者連絡": "0288-54-1111", "給油": "不可" }, "geometry": { "type": "Point", "coordinates": [ 139.637333332901733, 36.745999999894558 ] } },
{ "type": "Feature", "properties": { "NO": 12, "X": -33847.0829, "Y": 36457.8792, "名称": "渡良瀬グランド", "住所": "栃木県足利市伊勢町４２３０", "管理大区分": "国土交通省関東地方整備局", "管理小区分": "渡良瀬河川事務所", "管理者連絡": "0284-41-3963", "給油": "不可" }, "geometry": { "type": "Point", "coordinates": [ 139.456333333238376, 36.328000000341618 ] } },
{ "type": "Feature", "properties": { "NO": 13, "X": -12816.9738, "Y": 80969.5346, "名称": "大谷川グリーンパークJブロック", "住所": "栃木県日光市市川原地先", "管理大区分": "日光市", "管理小区分": "勤労者体育センター", "管理者連絡": "0288-22-6470", "給油": "不可" }, "geometry": { "type": "Point", "coordinates": [ 139.68983333365756, 36.729666666287798 ] } },
{ "type": "Feature", "properties": { "NO": 14, "X": -77151.9518, "Y": 85025.3982, "名称": "水上町諏訪遊歩道", "住所": "群馬県利根郡みなかみ町大字湯原", "管理大区分": "みなかみ町", "管理小区分": "水上町役場", "管理者連絡": "0278-72-2111", "給油": "不可" }, "geometry": { "type": "Point", "coordinates": [ 138.969166666356216, 36.763166666698552 ] } },
{ "type": "Feature", "properties": { "NO": 15, "X": -17780.4135, "Y": 19785.6176, "名称": "大越", "住所": "埼玉県加須市大越", "管理大区分": "国土交通省関東地方整備局", "管理小区分": "利根川上流河川事務所調査課", "管理者連絡": "0480-52-3952", "給油": "不可" }, "geometry": { "type": "Point", "coordinates": [ 139.635666666649655, 36.178166666501681 ] } },
{ "type": "Feature", "properties": { "NO": 16, "X": -71648.5534, "Y": 50724.7157, "名称": "渋川", "住所": "群馬県渋川市半田２８３６坂東橋地内", "管理大区分": "渋川市", "管理小区分": "公園緑地課", "管理者連絡": "0279-22-2111", "給油": "不可" }, "geometry": { "type": "Point", "coordinates": [ 139.033999999817212, 36.454500000081566 ] } },
{ "type": "Feature", "properties": { "NO": 17, "X": -70950.8489, "Y": 89872.9842, "名称": "藤原ダム", "住所": "群馬県利根郡みなかみ町大字夜後字洞永２６", "管理大区分": "国土交通省関東地方整備局", "管理小区分": "利根川ダム統合管理事務所", "管理者連絡": "072-251-2271", "給油": "不可" }, "geometry": { "type": "Point", "coordinates": [ 139.038166666229159, 36.807333332966884 ] } },
{ "type": "Feature", "properties": { "NO": 18, "X": -79194.8413, "Y": 82972.5467, "名称": "水上", "住所": "群馬県利根郡みなかみ町大字寺間地内", "管理大区分": "みなかみ町", "管理小区分": "水上町役場", "管理者連絡": "0278-72-2111", "給油": "不可" }, "geometry": { "type": "Point", "coordinates": [ 138.946499999565532, 36.74450000025719 ] } },
{ "type": "Feature", "properties": { "NO": 19, "X": 9597.1303, "Y": 44811.2943, "名称": "真岡防災ステーション", "住所": "栃木県真岡市若旅", "管理大区分": "国土交通省関東地方整備局", "管理小区分": "下館河川事務所", "管理者連絡": "0296-25-2171", "給油": "不可" }, "geometry": { "type": "Point", "coordinates": [ 139.940333333708367, 36.403833333541904 ] } },
{ "type": "Feature", "properties": { "NO": 20, "X": -84946.6581, "Y": -4749.1869, "名称": "滝沢ダム", "住所": "埼玉県秩父市滝ノ沢地内", "管理大区分": "水資源機構", "管理小区分": "瀧澤ダム管理支所", "管理者連絡": "0494-55-0011", "給油": "不可" }, "geometry": { "type": "Point", "coordinates": [ 138.891666666295691, 35.953500000045999 ] } },
{ "type": "Feature", "properties": { "NO": 21, "X": -53937.3552, "Y": -50926.8006, "名称": "宮ケ瀬ダム", "住所": "神奈川県相模原市緑区青山", "管理大区分": "国土交通省関東地方整備局", "管理小区分": "相模水系広域ダム管理事務所", "管理者連絡": "046-281-6911", "給油": "不可" }, "geometry": { "type": "Point", "coordinates": [ 139.238500000099378, 35.539500000146639 ] } },
{ "type": "Feature", "properties": { "NO": 22, "X": -53090.5929, "Y": -50857.9071, "名称": "宮ケ瀬ダム右岸", "住所": "神奈川県愛甲郡愛川町半原地先", "管理大区分": "国土交通省関東地方整備局", "管理小区分": "相模水系広域ダム管理事務所", "管理者連絡": "046-281-6911", "給油": "不可" }, "geometry": { "type": "Point", "coordinates": [ 139.247833333699162, 35.540166666306163 ] } },
{ "type": "Feature", "properties": { "NO": 23, "X": -34412.3485, "Y": -70937.0636, "名称": "藤沢市引地川", "住所": "神奈川県藤沢市大庭６４６１", "管理大区分": "藤沢市", "管理小区分": "総務部", "管理者連絡": "0466-25-1111", "給油": "不可" }, "geometry": { "type": "Point", "coordinates": [ 139.454666666791326, 35.359999999589903 ] } },
{ "type": "Feature", "properties": { "NO": 24, "X": -47634.4563, "Y": 27220.5917, "名称": "深谷利根川", "住所": "埼玉県深谷市高島", "管理大区分": "国土交通省関東地方整備局", "管理小区分": "利根川上流河川事務所", "管理者連絡": "0480-52-3956", "給油": "不可" }, "geometry": { "type": "Point", "coordinates": [ 139.303333332959085, 36.244166666712509 ] } },
{ "type": "Feature", "properties": { "NO": 25, "X": -28874.3505, "Y": 33407.1357, "名称": "奥戸町", "住所": "栃木県足利市奥戸町", "管理大区分": "国土交通省関東地方整備局", "管理小区分": "渡良瀬河川事務所", "管理者連絡": "0284-73-5557", "給油": "不可" }, "geometry": { "type": "Point", "coordinates": [ 139.511833333648582, 36.300666666279206 ] } },
{ "type": "Feature", "properties": { "NO": 26, "X": -13148.6315, "Y": 19296.6236, "名称": "北川辺", "住所": "埼玉県加須市伊賀袋", "管理大区分": "加須市", "管理小区分": "北川辺総合支所市民総務課", "管理者連絡": "0280-62-2111", "給油": "不可" }, "geometry": { "type": "Point", "coordinates": [ 139.687166667015873, 36.17383333305844 ] } },
{ "type": "Feature", "properties": { "NO": 27, "X": -120264.1875, "Y": -43122.8344, "名称": "南アルプス", "住所": "山梨県南アルプス市一本杉地内", "管理大区分": "国土交通省関東地方整備局", "管理小区分": "甲府河川国道事務所", "管理者連絡": "055-252-8888", "給油": "不可" }, "geometry": { "type": "Point", "coordinates": [ 138.50599999950802, 35.603999999543817 ] } },
{ "type": "Feature", "properties": { "NO": 28, "X": -66213.9862, "Y": 73522.1912, "名称": "沼田", "住所": "群馬県沼田市硯田町６２６", "管理大区分": "沼田市", "管理小区分": "東京電力", "管理者連絡": "不明", "給油": "不可" }, "geometry": { "type": "Point", "coordinates": [ 139.092666666168952, 36.660333333313943 ] } },
{ "type": "Feature", "properties": { "NO": 29, "X": -5578.9311, "Y": -54878.2279, "名称": "東扇島", "住所": "神奈川県川崎市川崎区東扇島５８-１５", "管理大区分": "国土交通省関東地方整備局", "管理小区分": "港湾空港部", "管理者連絡": "045-211-7427", "給油": "不可" }, "geometry": { "type": "Point", "coordinates": [ 139.771833333509619, 35.505333333215212 ] } },
{ "type": "Feature", "properties": { "NO": 30, "X": -18572.0242, "Y": -87032.3684, "名称": "武山駐屯地", "住所": "神奈川県横須賀市御幸浜１−１", "管理大区分": "防衛省", "管理小区分": "国土交通省港湾空港部危機管理課", "管理者連絡": "045-211-7427", "給油": "不可" }, "geometry": { "type": "Point", "coordinates": [ 139.629333333364457, 35.215333333734499 ] } },
{ "type": "Feature", "properties": { "NO": 31, "X": -14949.5657, "Y": 18245.4818, "名称": "新川通(しんかわどおり）", "住所": "埼玉県加須市新川通７００-６地先", "管理大区分": "国土交通省関東地方整備局", "管理小区分": "利根川上流河川事務所", "管理者連絡": "0480-52-9839", "給油": "不可" }, "geometry": { "type": "Point", "coordinates": [ 139.667166666245208, 36.164333333723057 ] } },
{ "type": "Feature", "properties": { "NO": 32, "X": -8750.1155, "Y": -50974.3257, "名称": "大師河原河川防災ST", "住所": "神奈川県川崎市大師河原町１-１５地先", "管理大区分": "国土交通省関東地方整備局", "管理小区分": "京浜河川事務所", "管理者連絡": "045-503-4018", "給油": "不可" }, "geometry": { "type": "Point", "coordinates": [ 139.736833333597247, 35.540500000025027 ] } },
{ "type": "Feature", "properties": { "NO": 33, "X": -83977.0785, "Y": 79522.4118, "名称": "相俣ダム（あいまたダム）", "住所": "群馬県利根郡みなかみ町大字穴原地先", "管理大区分": "国土交通省関東地方整備局", "管理小区分": "利根川ダム統合管理事務所", "管理者連絡": "0278-66-0034", "給油": "不可" }, "geometry": { "type": "Point", "coordinates": [ 138.893333333519195, 36.71300000012419 ] } },
{ "type": "Feature", "properties": { "NO": 34, "X": -58613.9366, "Y": 71450.9889, "名称": "薗原ダム（そのはらダム）", "住所": "群馬県沼田市利根町薗原地先", "管理大区分": "国土交通省関東地方整備局", "管理小区分": "利根川ダム統合管理事務所", "管理者連絡": "0278-54-8012", "給油": "不可" }, "geometry": { "type": "Point", "coordinates": [ 139.177833333476826, 36.642166666841582 ] } },
{ "type": "Feature", "properties": { "NO": 35, "X": -14986.0061, "Y": 23219.885, "名称": "渡良瀬遊水池下宮", "住所": "栃木県栃木市藤岡町下宮地先", "管理大区分": "国土交通省関東地方整備局", "管理小区分": "利根川上流河川事務所", "管理者連絡": "0280-62-2420", "給油": "不可" }, "geometry": { "type": "Point", "coordinates": [ 139.666666666909265, 36.209166666229166 ] } },
{ "type": "Feature", "properties": { "NO": 36, "X": -28930.6899, "Y": 20943.468, "名称": "上新郷", "住所": "埼玉県羽生市川俣地先", "管理大区分": "国土交通省関東地方整備局", "管理小区分": "利根川上流河川事務所", "管理者連絡": "048-563-1992", "給油": "不可" }, "geometry": { "type": "Point", "coordinates": [ 139.511666666777785, 36.188333333061216 ] } },
{ "type": "Feature", "properties": { "NO": 37, "X": -18796.6793, "Y": 21267.1074, "名称": "大高島", "住所": "群馬県邑楽郡板倉町大高島地先", "管理大区分": "国土交通省関東地方整備局", "管理小区分": "利根川上流河川事務所", "管理者連絡": "048-563-1992", "給油": "不可" }, "geometry": { "type": "Point", "coordinates": [ 139.624333332798727, 36.191500000156154 ] } },
{ "type": "Feature", "properties": { "NO": 38, "X": -3305.7078, "Y": -40401.6878, "名称": "有明の丘", "住所": "東京都江東区有明２丁目有明の丘基幹的広域防災拠点施設内", "管理大区分": "国土交通省関東地方整備局", "管理小区分": "関東地整防災公園課", "管理者連絡": "03-3529-2171", "給油": "不可" }, "geometry": { "type": "Point", "coordinates": [ 139.79683333307716, 35.635833333754036 ] } },
{ "type": "Feature", "properties": { "NO": 39, "X": -59746.5797, "Y": -81362.5278, "名称": "小田原１(酒匂川スポーツ広場)", "住所": "神奈川県小田原市東町５丁目地先", "管理大区分": "小田原市", "管理小区分": "教育委員会スポーツ課", "管理者連絡": "0465-38-1148", "給油": "不可" }, "geometry": { "type": "Point", "coordinates": [ 139.176666666746939, 35.264833333095858 ] } },
{ "type": "Feature", "properties": { "NO": 40, "X": 24706.2235, "Y": 113360.5441, "名称": "那須町運動公園", "住所": "栃木県那須郡那須町寺子丙１００番地", "管理大区分": "国土交通省関東地方整備局", "管理小区分": "日光砂防事務所", "管理者連絡": "0288-53-4589", "給油": "不可" }, "geometry": { "type": "Point", "coordinates": [ 140.110999999611266, 37.021333332928513 ] } },
{ "type": "Feature", "properties": { "NO": 41, "X": -71146.9756, "Y": -40820.8142, "名称": "談合坂SA(上り)", "住所": "山梨県上野原市大野６５０番地", "管理大区分": "中日本高速道路", "管理小区分": null, "管理者連絡": "0554-22-2151", "給油": "不可" }, "geometry": { "type": "Point", "coordinates": [ 139.047833333372751, 35.629500000265651 ] } },
{ "type": "Feature", "properties": { "NO": 42, "X": -37133.4975, "Y": 37765.81, "名称": "五十部(よべ)No.1", "住所": "栃木県足利市五十部町地先", "管理大区分": "国土交通省関東地方整備局", "管理小区分": "渡良瀬河川事務所", "管理者連絡": "0284-73-5552", "給油": "不可" }, "geometry": { "type": "Point", "coordinates": [ 139.419666666197145, 36.339666666400156 ] } },
{ "type": "Feature", "properties": { "NO": 43, "X": -37163.3407, "Y": 37784.4306, "名称": "五十部(よべ)No.2", "住所": "栃木県足利市五十部町地先", "管理大区分": "国土交通省関東地方整備局", "管理小区分": "渡良瀬河川事務所", "管理者連絡": "0284-73-5552", "給油": "不可" }, "geometry": { "type": "Point", "coordinates": [ 139.419333333010599, 36.339833333210471 ] } },
{ "type": "Feature", "properties": { "NO": 44, "X": -42279.6178, "Y": 10087.4278, "名称": "武蔵丘陵森林公園", "住所": "埼玉県比企郡滑川町山田１９２０", "管理大区分": "国土交通省関東地方整備局", "管理小区分": "武蔵丘陵森林公園管理事務所", "管理者連絡": "0493-56-2225", "給油": "不可" }, "geometry": { "type": "Point", "coordinates": [ 139.363833333424225, 36.090000000237737 ] } },
{ "type": "Feature", "properties": { "NO": 45, "X": -2043.6048, "Y": -425.0626, "名称": "龍Q館多目的広場", "住所": "埼玉県春日部市上金崎７２０", "管理大区分": "国土交通省関東地方整備局", "管理小区分": "江戸川河川事務所", "管理者連絡": "048-746-7524", "給油": "不可" }, "geometry": { "type": "Point", "coordinates": [ 139.810666666605101, 35.996166666531686 ] } },
{ "type": "Feature", "properties": { "NO": 46, "X": -11329.3167, "Y": -23328.3864, "名称": "浮間防災ステーション", "住所": "東京都北区浮間１−３地先", "管理大区分": "国土交通省関東地方整備局", "管理小区分": "荒川下流河川事務所", "管理者連絡": "03-3902-5696", "給油": "不可" }, "geometry": { "type": "Point", "coordinates": [ 139.708000000158052, 35.789666666376448 ] } },
{ "type": "Feature", "properties": { "NO": 47, "X": -1547.3165, "Y": 1923.2361, "名称": "関宿河川敷", "住所": "千葉県野田市平井地先", "管理大区分": "日本航空協会", "管理小区分": "関宿滑空場管理事務所", "管理者連絡": "0471-98-1401", "給油": "不可" }, "geometry": { "type": "Point", "coordinates": [ 139.81616666616074, 36.017333333281123 ] } },
{ "type": "Feature", "properties": { "NO": 48, "X": 36053.7258, "Y": -16291.0562, "名称": "出津（でず）防災センター", "住所": "千葉県印旛郡栄町出津地先", "管理大区分": "国土交通省関東地方整備局", "管理小区分": "利根川下流河川事務所", "管理者連絡": "0478-52-6366", "給油": "不可" }, "geometry": { "type": "Point", "coordinates": [ 140.232499999627095, 35.852499999601861 ] } },
{ "type": "Feature", "properties": { "NO": 49, "X": 60573.6757, "Y": -11349.0055, "名称": "佐原", "住所": "千葉県香取市佐原イ４１４９地内", "管理大区分": "国土交通省関東地方整備局", "管理小区分": "利根川下流河川事務所", "管理者連絡": "0478-52-6366", "給油": "不可" }, "geometry": { "type": "Point", "coordinates": [ 140.504333332876229, 35.895833333291961 ] } },
{ "type": "Feature", "properties": { "NO": 50, "X": 15611.2854, "Y": -33787.5572, "名称": "船橋防災センター", "住所": "千葉県船橋市東船橋５−２−１", "管理大区分": "国土交通省関東地方整備局", "管理小区分": "関東技術事務所", "管理者連絡": "047-422-2101", "給油": "不可" }, "geometry": { "type": "Point", "coordinates": [ 140.005833333790804, 35.695333333024266 ] } },
{ "type": "Feature", "properties": { "NO": 51, "X": 43271.1271, "Y": -64223.9004, "名称": "川中島(下水処理場)", "住所": "千葉県茂原市茂原７０４番地", "管理大区分": "茂原市", "管理小区分": "都市建設部下水道課", "管理者連絡": "0475-20-1549", "給油": "不可" }, "geometry": { "type": "Point", "coordinates": [ 140.309833333790209, 35.420166666363244 ] } },
{ "type": "Feature", "properties": { "NO": 52, "X": 75249.2877, "Y": -11920.2624, "名称": "神栖町", "住所": "茨城県神栖市溝口４９９１", "管理大区分": "神栖市", "管理小区分": null, "管理者連絡": "0299-90-1111", "給油": "不可" }, "geometry": { "type": "Point", "coordinates": [ 140.666833333237662, 35.88966666710693 ] } },
{ "type": "Feature", "properties": { "NO": 53, "X": 74738.4383, "Y": 66545.5396, "名称": "浜の宮広場", "住所": "茨城県日立市東町３-１３", "管理大区分": "日立市", "管理小区分": "教育委員会スポーツ振興課", "管理者連絡": "0294-22-3111", "給油": "不可" }, "geometry": { "type": "Point", "coordinates": [ 140.668666666183441, 36.596833333114233 ] } },
{ "type": "Feature", "properties": { "NO": 54, "X": 12225.465, "Y": -6833.2677, "名称": "守谷ＳＡ", "住所": "茨城県守谷市大柏字堂の下１６６", "管理大区分": "東日本高速道路", "管理小区分": "谷和原管理事務所", "管理者連絡": "0297-52-1492", "給油": "不可" }, "geometry": { "type": "Point", "coordinates": [ 139.968833333342417, 35.938333333411947 ] } },
{ "type": "Feature", "properties": { "NO": 55, "X": 69387.04, "Y": 43955.8361, "名称": "(国営)ひたち海浜公園(多目的広場)", "住所": "茨城県ひたちなか市馬渡字大沼６０５-４", "管理大区分": "国土交通省関東地方整備局", "管理小区分": "国営常陸海浜公園事務所 工務課", "管理者連絡": "029-265-9412", "給油": "不可" }, "geometry": { "type": "Point", "coordinates": [ 140.606833333699313, 36.393666667016923 ] } },
{ "type": "Feature", "properties": { "NO": 56, "X": -5192.2604, "Y": 11244.3558, "名称": "山王地区河川", "住所": "茨城県猿島郡五霞町山王地先", "管理大区分": "国土交通省関東地方整備局", "管理小区分": "江戸川河川事務所", "管理者連絡": "04-7125-7436", "給油": "不可" }, "geometry": { "type": "Point", "coordinates": [ 139.775666666964895, 36.101333333312049 ] } },
{ "type": "Feature", "properties": { "NO": 57, "X": -141124.8942, "Y": 43939.6512, "名称": "千曲川緑地", "住所": "長野県上田市大字国分西沖", "管理大区分": "上田市", "管理小区分": "体育課", "管理者連絡": "0268-22-8699", "給油": "不可" }, "geometry": { "type": "Point", "coordinates": [ 138.260333333743972, 36.385666666362184 ] } },
{ "type": "Feature", "properties": { "NO": 58, "X": -71285.0657, "Y": -1819.0824, "名称": "埼玉県秩父防災基地", "住所": "埼玉県秩父郡小鹿野町長留２９３６−１", "管理大区分": "埼玉県", "管理小区分": "危機管理防災部消防防災課", "管理者連絡": "048-824-2111", "給油": "不可" }, "geometry": { "type": "Point", "coordinates": [ 139.042833333189691, 35.981000000258199 ] } },
{ "type": "Feature", "properties": { "NO": 59, "X": -122242.4231, "Y": -34292.1351, "名称": "日本航空学園双葉", "住所": "山梨県甲斐市大字志田字向河原１０５３番地の１", "管理大区分": "日本航空学園", "管理小区分": null, "管理者連絡": "0551-28-3355", "給油": "可" }, "geometry": { "type": "Point", "coordinates": [ 138.482833333748914, 35.683333333485713 ] } },
{ "type": "Feature", "properties": { "NO": 60, "X": 15470.8663, "Y": 62129.1454, "名称": "栃木ヘリポート", "住所": "栃木県芳賀郡芳賀町大字芳賀台１２８−１", "管理大区分": "栃木県", "管理小区分": null, "管理者連絡": "028-677-4545", "給油": "可" }, "geometry": { "type": "Point", "coordinates": [ 140.006166666146555, 36.559833332909811 ] } },
{ "type": "Feature", "properties": { "NO": 61, "X": -9999.0, "Y": -9999.0, "名称": "あづみの公園 大町地区", "住所": "長野県大町市常盤７７９１-４国営アルプスあづみの公園内", "管理大区分": "国営あづみの公園(国土交通省)", "管理小区分": "大町・松川管理センター", "管理者連絡": "0261-21-1212", "給油": "不可" }, "geometry": { "type": "Point", "coordinates": [ 139.722549944551957, 35.909824840827014 ] } },
{ "type": "Feature", "properties": { "NO": 62, "X": 1387.8683, "Y": -35076.9956, "名称": "小松川リバーステーション", "住所": "東京都江戸川区小松川１丁目１番地先", "管理大区分": "国土交通省関東地方整備局", "管理小区分": "荒川下流河川事務所", "管理者連絡": "03-3902-5696", "給油": "不可" }, "geometry": { "type": "Point", "coordinates": [ 139.848666666323737, 35.683833333462374 ] } },
{ "type": "Feature", "properties": { "NO": 63, "X": 48906.5642, "Y": 598.3912, "名称": "霞ヶ浦大山", "住所": "茨城県稲敷郡美浦村大山地先", "管理大区分": "国土交通省関東地方整備局", "管理小区分": "霞ヶ浦河川事務所", "管理者連絡": "0299-63-2411", "給油": "不可" }, "geometry": { "type": "Point", "coordinates": [ 140.375833333735216, 36.004166666672539 ] } },
{ "type": "Feature", "properties": { "NO": 64, "X": -9942.9505, "Y": -23034.2001, "名称": "南中学校", "住所": "埼玉県川口市舟戸町5", "管理大区分": "不明", "管理小区分": "不明", "管理者連絡": "不明", "給油": "不可" }, "geometry": { "type": "Point", "coordinates": [ 139.72333333361675, 35.79233333311393 ] } },
{ "type": "Feature", "properties": { "NO": 65, "X": -31771.6423, "Y": -31211.2409, "名称": "国土交通大学", "住所": "東京都小平市喜平町2-2-1", "管理大区分": "国土交通大学", "管理小区分": null, "管理者連絡": "042-321-0645", "給油": "不可" }, "geometry": { "type": "Point", "coordinates": [ 139.482166666128677, 35.718166666219474 ] } },
{ "type": "Feature", "properties": { "NO": 66, "X": -31117.6661, "Y": -38240.017, "名称": "是政", "住所": "東京都府中市是政4丁目地内", "管理大区分": "府中市", "管理小区分": "スポーツ振興課", "管理者連絡": "042-363-8111", "給油": "不可" }, "geometry": { "type": "Point", "coordinates": [ 139.489666667123032, 35.654833332893382 ] } },
{ "type": "Feature", "properties": { "NO": 67, "X": -111330.2028, "Y": 70659.5103, "名称": "草津国際スキー場", "住所": "群馬県吾妻郡草津町大字草津草津国際スキー場第５駐車場", "管理大区分": "アカギヘリコプター", "管理小区分": null, "管理者連絡": "03-3522-1701", "給油": "不可" }, "geometry": { "type": "Point", "coordinates": [ 138.588499999569393, 36.630333333514685 ] } },
{ "type": "Feature", "properties": { "NO": 68, "X": -889.4088, "Y": -28716.3512, "名称": "堀切", "住所": "東京都葛飾区堀切２丁目", "管理大区分": "国土交通省関東地方整備局", "管理小区分": "荒川下流河川事務所", "管理者連絡": "03-3902-2311", "給油": "不可" }, "geometry": { "type": "Point", "coordinates": [ 139.823499999739511, 35.741166666356463 ] } },
{ "type": "Feature", "properties": { "NO": 69, "X": -13703.2134, "Y": 103773.9703, "名称": "西川", "住所": "栃木県日光市西川１２６-２", "管理大区分": "国土交通省", "管理小区分": "鬼怒川ダム統合事務所", "管理者連絡": "不明", "給油": "不可" }, "geometry": { "type": "Point", "coordinates": [ 139.679499999809991, 36.935166666571988 ] } },
{ "type": "Feature", "properties": { "NO": 70, "X": -53214.0273, "Y": 28528.9171, "名称": "境島", "住所": "群馬県伊勢崎市境島村５１８６−１", "管理大区分": "国土交通省関東地方整備局", "管理小区分": "利根川上流河川事務所", "管理者連絡": "0480-52-3956", "給油": "不可" }, "geometry": { "type": "Point", "coordinates": [ 139.241166667219318, 36.255666666475889 ] } },
{ "type": "Feature", "properties": { "NO": 71, "X": -31251.5314, "Y": -3568.7871, "名称": "埼玉県中央防災基地", "住所": "埼玉県比企郡川島町大字上狢１１１-１", "管理大区分": "埼玉県", "管理小区分": "埼玉県災害対策課防災訓練担当", "管理者連絡": "048-830-8186", "給油": "不可" }, "geometry": { "type": "Point", "coordinates": [ 139.486833333051749, 35.967333333291101 ] } },
{ "type": "Feature", "properties": { "NO": 72, "X": -2426.5552, "Y": -26977.9527, "名称": "千住新橋", "住所": "東京都足立区千住５丁目", "管理大区分": "国土交通省関東地方整備局", "管理小区分": "荒川下流河川事務所", "管理者連絡": "03-3902-5696", "給油": "不可" }, "geometry": { "type": "Point", "coordinates": [ 139.806499999781664, 35.756833332910688 ] } },
{ "type": "Feature", "properties": { "NO": 73, "X": 21261.3797, "Y": -12381.944, "名称": "取手緑地公園HP", "住所": "茨城県取手地先", "管理大区分": "国土交通省", "管理小区分": "利根川下流工事事務所", "管理者連絡": "0478-52-6370", "給油": "不可" }, "geometry": { "type": "Point", "coordinates": [ 140.068833333210137, 35.888166666327415 ] } },
{ "type": "Feature", "properties": { "NO": 74, "X": -83902.6948, "Y": -148993.5398, "名称": "下田市営総合グランド", "住所": "静岡県下田市吉佐美1901", "管理大区分": "下田市", "管理小区分": "教育委員会", "管理者連絡": "0558-22-2211", "給油": "不可" }, "geometry": { "type": "Point", "coordinates": [ 138.917999999780932, 34.653499999982202 ] } },
{ "type": "Feature", "properties": { "NO": 75, "X": -93832.6199, "Y": -120441.0324, "名称": "土肥町(といちょう)", "住所": "静岡県伊豆市土肥3498-21", "管理大区分": "伊豆市", "管理小区分": "土肥支所", "管理者連絡": "0558-98-1111", "給油": "不可" }, "geometry": { "type": "Point", "coordinates": [ 138.806500000232546, 34.909999999871026 ] } },
{ "type": "Feature", "properties": { "NO": 76, "X": -65111.4833, "Y": -199580.1795, "名称": "神津島(こうずしま)", "住所": "東京都神津島村鴎穴157番地", "管理大区分": "神津島村", "管理小区分": null, "管理者連絡": "04992-8-0011", "給油": "不可" }, "geometry": { "type": "Point", "coordinates": [ 139.126833333378215, 34.198833333514585 ] } },
{ "type": "Feature", "properties": { "NO": 77, "X": -57339.2694, "Y": -184600.8095, "名称": "式根島", "住所": "東京都新島村本村式根島910", "管理大区分": "新島村", "管理小区分": null, "管理者連絡": "04992-5-0240", "給油": "不可" }, "geometry": { "type": "Point", "coordinates": [ 139.210166666143039, 34.334333333331926 ] } },
{ "type": "Feature", "properties": { "NO": 78, "X": -51406.7033, "Y": -162857.1578, "名称": "利島(としま)", "住所": "東京都利島村1720番地", "管理大区分": "利島村", "管理小区分": null, "管理者連絡": "04992-9-0011", "給油": "不可" }, "geometry": { "type": "Point", "coordinates": [ 139.27333333318731, 34.530666666673589 ] } },
{ "type": "Feature", "properties": { "NO": 79, "X": -6846.3921, "Y": -391770.2531, "名称": "青ヶ島", "住所": "東京都青ヶ島村村地内", "管理大区分": "青ヶ島村", "管理小区分": null, "管理者連絡": "04994-9-0111", "給油": "不可" }, "geometry": { "type": "Point", "coordinates": [ 139.76049999980188, 32.467833333179186 ] } },
{ "type": "Feature", "properties": { "NO": 80, "X": -9999.0, "Y": -9999.0, "名称": "信濃大町", "住所": "長野県大町市大字社字古町5346-3", "管理大区分": "ツカサ工業", "管理小区分": null, "管理者連絡": "03-5757-3000", "給油": "不可" }, "geometry": { "type": "Point", "coordinates": [ 139.722549944551957, 35.909824840827014 ] } },
{ "type": "Feature", "properties": { "NO": 81, "X": -143104.7625, "Y": 69724.2443, "名称": "長野ヘリポート", "住所": "長野県長野市若穂牛島1298-1", "管理大区分": "長野市", "管理小区分": "都市整備部交通政策課", "管理者連絡": "026-224-5011", "給油": "不可" }, "geometry": { "type": "Point", "coordinates": [ 138.233499999783191, 36.617666666694845 ] } },
{ "type": "Feature", "properties": { "NO": 82, "X": -120506.9189, "Y": -42083.8306, "名称": "甲府リバーサイド", "住所": "山梨県南アルプス市鏡中条字新地", "管理大区分": "中部日本航空", "管理小区分": null, "管理者連絡": "055-282-0600", "給油": "不可" }, "geometry": { "type": "Point", "coordinates": [ 138.50316666612656, 35.613333333491774 ] } },
{ "type": "Feature", "properties": { "NO": 83, "X": -17774.1805, "Y": -59540.245, "名称": "みなとみらい", "住所": "神奈川県横浜市西区みなとみらい1丁目", "管理大区分": "横浜市", "管理小区分": "港湾局", "管理者連絡": "045-671-7231", "給油": "不可" }, "geometry": { "type": "Point", "coordinates": [ 139.637499999932032, 35.463166666495539 ] } },
{ "type": "Feature", "properties": { "NO": 84, "X": -105210.7573, "Y": -87512.1138, "名称": "施工総研", "住所": "静岡県富士市大渕3154", "管理大区分": "社団法人施工技術総合研究所", "管理小区分": "総務部", "管理者連絡": "0545-35-0212", "給油": "不可" }, "geometry": { "type": "Point", "coordinates": [ 138.677833333837015, 35.205666666641982 ] } },
{ "type": "Feature", "properties": { "NO": 85, "X": -51906.641, "Y": -49977.3013, "名称": "愛川半原", "住所": "神奈川県愛甲郡愛川町半原6087", "管理大区分": "服部牧場", "管理小区分": null, "管理者連絡": "0462-81-0917", "給油": "不可" }, "geometry": { "type": "Point", "coordinates": [ 139.260833333020571, 35.548166666414453 ] } },
{ "type": "Feature", "properties": { "NO": 86, "X": 5095.4642, "Y": -2975.6197, "名称": "目吹防災ステーション", "住所": "千葉県野田市目吹地先", "管理大区分": "利根川上流河川事務所", "管理小区分": null, "管理者連絡": "0480-52-3956", "給油": "不可" }, "geometry": { "type": "Point", "coordinates": [ 139.889833333024711, 35.973166666399976 ] } },
{ "type": "Feature", "properties": { "NO": 87, "X": -111270.4293, "Y": -73033.3401, "名称": "大沢(富士宮市)", "住所": "静岡県富士宮市上井出地内", "管理大区分": "国土交通省関東地方整備局", "管理小区分": "富士砂防事務所", "管理者連絡": "0544-27-5221", "給油": "不可" }, "geometry": { "type": "Point", "coordinates": [ 138.609333333142644, 35.335500000435005 ] } },
{ "type": "Feature", "properties": { "NO": 88, "X": -15508.8753, "Y": -9805.1765, "名称": "日本大学大宮キャンパス", "住所": "埼玉県さいたま市見沼区東新井541", "管理大区分": "日本大学", "管理小区分": "法学部", "管理者連絡": "048-687-5606", "給油": "不可" }, "geometry": { "type": "Point", "coordinates": [ 139.6614999994801, 35.9115000002393 ] } },
{ "type": "Feature", "properties": { "NO": 89, "X": -10244.6586, "Y": -23385.1796, "名称": "荒川赤羽緑地", "住所": "東京都北区赤羽3-29-22先", "管理大区分": "国土交通省関東地方整備局", "管理小区分": "荒川下流河川事務所", "管理者連絡": "03-3902-3220", "給油": "不可" }, "geometry": { "type": "Point", "coordinates": [ 139.71999999994199, 35.789166666869853 ] } }
]
}
