{"type":"FeatureCollection","features":[{"type":"Feature","geometry":{"type":"MultiPolygon","coordinates":[[[[140.116682477,37.261075468],[140.125106667,37.260054946],[140.132020532,37.255396054],[140.140267224,37.253928838],[140.142720532,37.248008559],[140.147742192,37.244594667],[140.155696109,37.243941054],[140.158263061,37.242151333],[140.165178392,37.243570225],[140.170173671,37.241544387],[140.178863476,37.245428838],[140.18393406,37.244942135],[140.184916809,37.24231936],[140.192327665,37.238927135],[140.199569364,37.236400468],[140.201160778,37.237836027],[140.203715772,37.237244081],[140.210843281,37.228395441],[140.219352776,37.227331559],[140.224077497,37.224258198],[140.233513139,37.22531736],[140.235445914,37.222074865],[140.241917912,37.220482892],[140.246772698,37.222734279],[140.254083333,37.219947586],[140.269770169,37.219210892],[140.274940532,37.221528946],[140.289954864,37.218142775],[140.289905383,37.214191108],[140.292865966,37.212214414],[140.294172387,37.213186919],[140.294057082,37.210775252],[140.29661131,37.211455532],[140.2935307,37.209387748],[140.295377639,37.208388],[140.295119001,37.201641613],[140.301716835,37.198904613],[140.293294475,37.188788225],[140.288628859,37.191602135],[140.279179585,37.192399108],[140.259901245,37.189016108],[140.257918755,37.190612505],[140.254918418,37.189070559],[140.253879805,37.190167775],[140.250479754,37.185485838],[140.249148638,37.187266973],[140.240194086,37.186352532],[140.239914332,37.182926973],[140.234918975,37.180773667],[140.252352477,37.172838306],[140.257882802,37.172180775],[140.261194228,37.168135468],[140.268135966,37.166836838],[140.276686355,37.167624306],[140.277393307,37.166193468],[140.273103217,37.163868748],[140.280008859,37.159989559],[140.278319637,37.156857054],[140.27403489,37.158831802],[140.272614864,37.157896252],[140.27080703,37.151185946],[140.266491388,37.148908198],[140.266433333,37.147348198],[140.276845668,37.142689802],[140.280269027,37.138434775],[140.284443256,37.140773081],[140.292880856,37.13976636],[140.293823113,37.138300802],[140.292414721,37.13365136],[140.295402218,37.128516892],[140.293498833,37.126126892],[140.297280026,37.127779108],[140.314935499,37.120590081],[140.314956641,37.122709252],[140.320241725,37.123448108],[140.320560921,37.124651171],[140.324225694,37.123384748],[140.325402633,37.121091667],[140.326531556,37.122483613],[140.330049637,37.12118136],[140.339906498,37.123142667],[140.346229922,37.119643694],[140.351590026,37.120822252],[140.353769468,37.117686108],[140.359327613,37.117290225],[140.363548586,37.121414054],[140.367131414,37.12104736],[140.387096667,37.126478414],[140.391377756,37.121842306],[140.40396,37.121458441],[140.408284423,37.116799279],[140.412334695,37.116652054],[140.412114578,37.107947054],[140.406748975,37.106181775],[140.397797691,37.099019027],[140.393301193,37.094579613],[140.393789196,37.092047414],[140.389576083,37.089724387],[140.383245188,37.090133865],[140.379044501,37.084576694],[140.373472477,37.083032838],[140.370565668,37.076255387],[140.364713645,37.076033225],[140.363406161,37.077449865],[140.360484137,37.074700468],[140.356671894,37.075866306],[140.354636005,37.074358838],[140.3558607,37.070560532],[140.354386719,37.067288333],[140.35565808,37.065297505],[140.362725058,37.062664973],[140.350882166,37.063558081],[140.350464034,37.058972559],[140.353399274,37.054608694],[140.352644747,37.051360108],[140.354466693,37.049419],[140.352468029,37.046999027],[140.349100752,37.046199306],[140.346260195,37.047951252],[140.346503865,37.050265973],[140.342024669,37.051769306],[140.330485383,37.051108802],[140.323932503,37.046809946],[140.321594423,37.047348306],[140.319344086,37.043865532],[140.315636252,37.042495559],[140.320133139,37.037332225],[140.318146135,37.033379468],[140.312941894,37.030035333],[140.315529559,37.020190054],[140.309728366,37.016752306],[140.299907173,37.017351775],[140.295496057,37.020155414],[140.283673969,37.015320198],[140.275136667,37.014025225],[140.268942698,37.008640252],[140.267234254,37.000034441],[140.263425616,37.000655838],[140.263016472,37.004043333],[140.251646719,37.008630586],[140.248943774,37.018497252],[140.250278807,37.022060306],[140.249075499,37.025830027],[140.240470415,37.023646441],[140.224654501,37.023804559],[140.219983865,37.01848764],[140.217663307,37.020785973],[140.211953554,37.019854333],[140.208987445,37.022946838],[140.203080467,37.023962387],[140.199286887,37.028351586],[140.199506394,37.032539919],[140.195593333,37.036526027],[140.198485863,37.038196306],[140.199782892,37.047692667],[140.190650661,37.056666306],[140.194586278,37.060236],[140.193390467,37.065106838],[140.184532918,37.069302694],[140.177762892,37.069043559],[140.174487302,37.071709387],[140.172781997,37.070276081],[140.166033671,37.078374973],[140.158354695,37.080577775],[140.152960506,37.086],[140.157443061,37.089076946],[140.156233061,37.091389441],[140.149109663,37.093062775],[140.156593087,37.097658306],[140.158504228,37.094796081],[140.166166498,37.092355532],[140.165003165,37.094915802],[140.168457367,37.097164108],[140.163440947,37.102008865],[140.167514332,37.105931054],[140.172418521,37.104463532],[140.178486394,37.107184081],[140.180513061,37.106442946],[140.182583359,37.108637667],[140.178254163,37.109533775],[140.180023087,37.110843225],[140.176766667,37.115095748],[140.1846862,37.116341559],[140.184399533,37.115338775],[140.185662607,37.119606252],[140.190867951,37.123227081],[140.187719611,37.127126802],[140.184940143,37.126983468],[140.183757639,37.128725135],[140.179074254,37.127491],[140.178079831,37.129695441],[140.186897419,37.132459865],[140.189375473,37.130476532],[140.195563333,37.136384],[140.198733891,37.135267333],[140.20104725,37.136971198],[140.199606693,37.138137333],[140.20095725,37.138740081],[140.200710895,37.141236505],[140.204423696,37.142008135],[140.204389857,37.147762865],[140.207269611,37.150659252],[140.206310726,37.152072027],[140.208416589,37.153954252],[140.207893281,37.157324802],[140.210745551,37.159843135],[140.209576978,37.167496748],[140.202115525,37.168162333],[140.189539105,37.174873198],[140.184900752,37.175435171],[140.187324721,37.184541279],[140.172596057,37.190627414],[140.168767198,37.197275748],[140.158224942,37.201377721],[140.148464137,37.211491333],[140.146229689,37.212012441],[140.143334086,37.208749667],[140.143876809,37.202921333],[140.14294511,37.200656613],[140.1400662,37.199413838],[140.1318938,37.216329667],[140.12152131,37.223436081],[140.115165525,37.231137721],[140.100854695,37.238111892],[140.099483917,37.242834946],[140.101478366,37.242384667],[140.102180026,37.244350505],[140.099290389,37.251703],[140.1038907,37.255198],[140.112171025,37.257509946],[140.114342724,37.261636054],[140.116682477,37.261075468]]]]},"properties":{"n03_007":"07205","\u6700\u5927\u9707\u5EA6":"4","\u9707\u5EA6\u5024":4,"color":"#FAE696"}},{"type":"Feature","geometry":{"type":"MultiPolygon","coordinates":[[[[140.290045525,37.611538171],[140.2846607,37.604908441],[140.287341245,37.59959564],[140.280160532,37.591378135],[140.277954617,37.581161721],[140.287551284,37.563818865],[140.285796446,37.555412198],[140.289235084,37.550022441],[140.297812918,37.544757414],[140.299011167,37.531481838],[140.306582335,37.526028748],[140.304060856,37.520836532],[140.305402802,37.517512081],[140.310602049,37.518519027],[140.314740973,37.517059559],[140.318341051,37.519434802],[140.31935939,37.518614532],[140.31721511,37.510770667],[140.318215668,37.506709],[140.315088949,37.504658171],[140.317616719,37.501563721],[140.320722866,37.501503135],[140.319612192,37.490339],[140.321887224,37.488136775],[140.322739144,37.483745108],[140.320902698,37.480520946],[140.318275162,37.479720946],[140.318101245,37.477557613],[140.321815162,37.476487333],[140.325601829,37.471090108],[140.330074137,37.473030667],[140.330885499,37.469519559],[140.334440246,37.467310081],[140.335782776,37.469804802],[140.334560856,37.472176198],[140.336235305,37.472022306],[140.336299494,37.473377306],[140.333333645,37.475748694],[140.336873995,37.478920919],[140.342813528,37.479892],[140.347064384,37.476742279],[140.347494358,37.473577559],[140.350185188,37.470793667],[140.357960026,37.472738667],[140.367761803,37.469575865],[140.373217445,37.471385865],[140.373147173,37.472669198],[140.383759857,37.478855],[140.391242996,37.477257775],[140.396091167,37.482432775],[140.3999393,37.483246667],[140.407192529,37.490806054],[140.408352776,37.48610136],[140.412712776,37.482056946],[140.419885357,37.480469748],[140.423580441,37.482282532],[140.423609922,37.485577775],[140.432090856,37.483222532],[140.43110642,37.485467775],[140.437923411,37.481828667],[140.441693191,37.481620333],[140.444379053,37.481858387],[140.445667173,37.48405336],[140.449797808,37.485768919],[140.453070052,37.484504198],[140.451504968,37.480101441],[140.460043995,37.479980613],[140.467604189,37.483319441],[140.469975668,37.486603865],[140.472991556,37.486795802],[140.47449406,37.485506081],[140.472703722,37.483761667],[140.474017588,37.480978054],[140.47800489,37.481499414],[140.485088885,37.47814636],[140.483725162,37.472360027],[140.480592607,37.472626973],[140.471060973,37.467385973],[140.47323428,37.462523775],[140.46751406,37.453591387],[140.473117419,37.446427225],[140.477171362,37.446021333],[140.47260153,37.442618892],[140.469632529,37.437996973],[140.472840078,37.437487505],[140.472740337,37.435464414],[140.471045863,37.435962505],[140.472015863,37.432959694],[140.46973275,37.431800532],[140.46525131,37.432776414],[140.461614553,37.430585865],[140.463308223,37.433393667],[140.45735786,37.435874505],[140.457657613,37.438008973],[140.452007523,37.438235865],[140.446222438,37.434978054],[140.449324916,37.429375252],[140.445453191,37.428176613],[140.44416428,37.425683532],[140.427488275,37.429633468],[140.425175162,37.427383441],[140.425829857,37.423022892],[140.423534475,37.413350306],[140.429503722,37.411779468],[140.432312944,37.413869505],[140.432312944,37.415327306],[140.429712892,37.414105054],[140.427008444,37.416063387],[140.427794578,37.417612306],[140.425134838,37.418303667],[140.426566524,37.421557306],[140.429127108,37.420107586],[140.428482088,37.418387586],[140.432563528,37.417390919],[140.43159214,37.419406225],[140.43438856,37.419054559],[140.434186861,37.41763564],[140.438032218,37.420944306],[140.436577717,37.417486775],[140.439596109,37.418109838],[140.440776667,37.416133441],[140.437235227,37.416234802],[140.436577691,37.413015054],[140.442338054,37.412923135],[140.444893113,37.415155946],[140.440096887,37.410934505],[140.442479974,37.408475333],[140.444437782,37.409697559],[140.447112244,37.407047532],[140.452252335,37.408472559],[140.450945084,37.406934225],[140.452274773,37.40404864],[140.451318664,37.402227225],[140.452394501,37.400381919],[140.450377224,37.397999973],[140.451356109,37.396673279],[140.448255525,37.396607441],[140.44466939,37.399549973],[140.443212387,37.396959108],[140.445349364,37.396819108],[140.4461938,37.394801027],[140.4437207,37.391196559],[140.448091582,37.390725721],[140.453500778,37.385884586],[140.455047224,37.389154892],[140.459283385,37.389706559],[140.468136835,37.38645764],[140.471012996,37.389319613],[140.468988275,37.391844613],[140.47024358,37.39315936],[140.47663144,37.391060721],[140.480725888,37.382636198],[140.477154423,37.378677],[140.47630297,37.373129198],[140.479627717,37.370303054],[140.487524773,37.370523892],[140.492388003,37.380668919],[140.490804112,37.385224225],[140.493635577,37.388229252],[140.502301284,37.388605027],[140.504536861,37.387078054],[140.509973333,37.387192468],[140.51110917,37.38568664],[140.514082309,37.388187748],[140.517654578,37.388048838],[140.518227108,37.390111054],[140.522240804,37.39164964],[140.528661167,37.390065721],[140.5315362,37.388256802],[140.531951997,37.385905387],[140.536105668,37.385109802],[140.541931479,37.374330865],[140.544336498,37.374402225],[140.551579611,37.369107198],[140.555616861,37.368668279],[140.559913554,37.365846306],[140.554834838,37.361628838],[140.545911245,37.347663865],[140.541284228,37.345911919],[140.541910311,37.34126636],[140.5376938,37.335826081],[140.538130726,37.332798027],[140.543430195,37.327323279],[140.543395746,37.325272171],[140.550160558,37.325854081],[140.555641699,37.320020748],[140.555552503,37.31723964],[140.560845058,37.314449613],[140.563001219,37.315419613],[140.564409831,37.313477081],[140.558032503,37.310823775],[140.557788521,37.302719333],[140.554882361,37.299807108],[140.559377665,37.295981838],[140.555374254,37.291018505],[140.556813671,37.287843775],[140.555770856,37.283833225],[140.558741699,37.279631559],[140.557490558,37.278311279],[140.56040834,37.275408225],[140.559332477,37.273231838],[140.555671855,37.273654054],[140.553080441,37.271499333],[140.545591479,37.272480198],[140.534939611,37.266022721],[140.525034501,37.268486919],[140.522432529,37.26977],[140.520518664,37.275445],[140.516656083,37.275330279],[140.514516667,37.281209198],[140.512076329,37.280297252],[140.51077275,37.283531694],[140.500603722,37.285812279],[140.496835616,37.284788973],[140.492159196,37.288387306],[140.488237756,37.288035919],[140.478078197,37.292683171],[140.474542581,37.292074559],[140.471308418,37.296806252],[140.463463061,37.29873736],[140.461095551,37.302959865],[140.455166615,37.306456802],[140.446589533,37.304026252],[140.443146719,37.306710973],[140.441124747,37.305427387],[140.431511336,37.309630171],[140.421508975,37.309972667],[140.411445006,37.314655721],[140.391130117,37.320671054],[140.38608703,37.324842198],[140.382531699,37.32549],[140.38167061,37.327876108],[140.378767497,37.325457838],[140.374624695,37.330157559],[140.376166978,37.333832532],[140.376090363,37.343195838],[140.353555058,37.339378054],[140.347955006,37.343501441],[140.32666856,37.340485252],[140.309456109,37.342080333],[140.298283722,37.338208414],[140.293054773,37.337599802],[140.290326978,37.339431225],[140.286611051,37.335631775],[140.284066589,37.337197892],[140.2804893,37.334799279],[140.275905642,37.334305414],[140.27193144,37.336098468],[140.273974254,37.338045973],[140.262921855,37.334434892],[140.237970195,37.334832414],[140.234362114,37.336225748],[140.233817977,37.339318252],[140.227255422,37.341425198],[140.219862049,37.348352694],[140.219550999,37.356407973],[140.21322153,37.358941586],[140.210687328,37.358803252],[140.210268975,37.357176865],[140.207394228,37.357738532],[140.203915863,37.360085748],[140.19753275,37.357906333],[140.188418029,37.372255775],[140.183630999,37.368697171],[140.180941777,37.360318279],[140.173871673,37.355876892],[140.174899728,37.352143],[140.173555253,37.349861333],[140.175073307,37.346576892],[140.172623281,37.344887171],[140.168039079,37.346170225],[140.165337912,37.340385225],[140.166760415,37.338314946],[140.155707523,37.333842721],[140.153586939,37.331446054],[140.145655253,37.335635225],[140.143291855,37.332675775],[140.13923489,37.332292721],[140.137208223,37.330259387],[140.134262918,37.330113559],[140.130384864,37.334486054],[140.126129533,37.333023279],[140.125035357,37.330848559],[140.122626719,37.331588279],[140.121372802,37.328267441],[140.115571673,37.328940505],[140.116178885,37.325632441],[140.114299974,37.319480775],[140.108922438,37.322690225],[140.106579637,37.319104946],[140.10271489,37.320884387],[140.094831219,37.318200775],[140.087763969,37.322838279],[140.081724475,37.320876333],[140.079272776,37.317659108],[140.075663022,37.317216333],[140.069634643,37.319388559],[140.067936031,37.324331613],[140.063700999,37.327039973],[140.041817717,37.332224694],[140.036215188,37.336096919],[140.036148807,37.33857164],[140.038276329,37.340932468],[140.037479948,37.342258586],[140.041071946,37.344361919],[140.041658885,37.347929414],[140.045346446,37.348749973],[140.045438949,37.352479414],[140.050782049,37.35564164],[140.05354297,37.365891081],[140.049218521,37.380556919],[140.049983554,37.382049694],[140.046482724,37.388583892],[140.048131894,37.390033613],[140.047426355,37.397550279],[140.049152218,37.398289721],[140.049431167,37.410408613],[140.051025357,37.414343333],[140.057547108,37.418054171],[140.058051582,37.422798613],[140.060922996,37.423873054],[140.063111362,37.428612468],[140.067991971,37.429513865],[140.070184773,37.431700802],[140.078976524,37.433028306],[140.10379655,37.452904946],[140.113355357,37.469848532],[140.132541051,37.463879081],[140.154720752,37.461852414],[140.158634137,37.464106],[140.159880532,37.461493225],[140.166522218,37.457781838],[140.176064553,37.457846559],[140.182334034,37.451272108],[140.181716226,37.448703775],[140.189234384,37.451013775],[140.198305331,37.449019027],[140.200291193,37.450069027],[140.201526887,37.465205414],[140.19925939,37.470089865],[140.192820169,37.474456252],[140.198840895,37.484551225],[140.193587808,37.48848736],[140.192620052,37.49364264],[140.187128885,37.495003468],[140.190350117,37.502584559],[140.188378171,37.506305387],[140.190055447,37.510244838],[140.184337886,37.512982054],[140.178374747,37.513125135],[140.177425331,37.517050414],[140.167910246,37.52227264],[140.165445253,37.525176775],[140.165541115,37.527399279],[140.171042581,37.530499559],[140.171659559,37.535182892],[140.175993256,37.536237054],[140.179138275,37.535235387],[140.183498366,37.541073171],[140.190994617,37.544736225],[140.192228301,37.553926775],[140.200180078,37.556011225],[140.203135966,37.559898441],[140.207109922,37.560189559],[140.210036083,37.562464838],[140.21772725,37.554638441],[140.228266278,37.555044252],[140.228140441,37.558416198],[140.232944423,37.559961748],[140.231147471,37.562441748],[140.231512776,37.564941225],[140.237472607,37.569844559],[140.240344916,37.576469559],[140.238889079,37.578024559],[140.240099144,37.585092892],[140.238420532,37.590081802],[140.248683774,37.598976],[140.263855668,37.603535721],[140.267558521,37.610651306],[140.271411388,37.61234464],[140.274895642,37.618501892],[140.282271336,37.624883559],[140.284704423,37.625976054],[140.28913725,37.620715171],[140.291058911,37.616274027],[140.290045525,37.611538171]]]]},"properties":{"n03_007":"07203","\u6700\u5927\u9707\u5EA6":"4","\u9707\u5EA6\u5024":4,"color":"#FAE696"}},{"type":"Feature","geometry":{"type":"MultiPolygon","coordinates":[[[[138.08910808,36.834695441],[138.089069728,36.829768775],[138.092227756,36.826217973],[138.096630532,36.82555936],[138.09642297,36.821107694],[138.099606278,36.818018559],[138.101426226,36.811671054],[138.099612283,36.803478865],[138.095289468,36.800912468],[138.097495253,36.794681946],[138.096250726,36.785745586],[138.098488444,36.779648081],[138.104696783,36.779545306],[138.112670143,36.783307252],[138.114087367,36.782153081],[138.119270973,36.782656135],[138.122252387,36.785934198],[138.126117367,36.785228108],[138.12212428,36.779175333],[138.120156135,36.770888667],[138.122759948,36.76140036],[138.126008781,36.756259802],[138.140120921,36.747534838],[138.133852827,36.740807054],[138.172770195,36.728291559],[138.179139027,36.721238252],[138.188419274,36.717845198],[138.194653411,36.712707973],[138.215673385,36.709033559],[138.223502866,36.714239387],[138.223408716,36.716824108],[138.228172335,36.717872441],[138.231270143,36.720924387],[138.238491803,36.719061892],[138.243506005,36.720631054],[138.251042088,36.718199387],[138.2512438,36.723136892],[138.256652724,36.724403279],[138.260899144,36.727833838],[138.262223891,36.731165775],[138.26131642,36.734814946],[138.264518392,36.736702171],[138.261352283,36.740380775],[138.261863411,36.743667171],[138.263804254,36.743352441],[138.265174254,36.740775505],[138.264626472,36.743155775],[138.26647511,36.746623252],[138.26964345,36.743925505],[138.2701962,36.741093],[138.273876472,36.739633],[138.275859274,36.741854081],[138.281055383,36.741241586],[138.282104306,36.743861027],[138.290534332,36.746842694],[138.296410169,36.744029919],[138.305065447,36.745812973],[138.311522944,36.742760198],[138.308390973,36.739086306],[138.308391141,36.72380964],[138.310928054,36.720752973],[138.304809974,36.718257694],[138.305610804,36.716765198],[138.303765499,36.715570505],[138.289969079,36.714782171],[138.290284864,36.708036613],[138.287533748,36.708429667],[138.287064838,36.704962721],[138.285177613,36.705193279],[138.283277302,36.703210505],[138.285118106,36.697560225],[138.281236641,36.688051081],[138.283279416,36.68766636],[138.282914968,36.686148027],[138.28008192,36.686575802],[138.276394034,36.67443164],[138.257263528,36.640127802],[138.273046329,36.634639748],[138.273823256,36.631320586],[138.27756297,36.630276973],[138.27878297,36.627781973],[138.282039105,36.627515865],[138.284345746,36.622567252],[138.287870467,36.621497802],[138.289422412,36.61298336],[138.300131582,36.607136973],[138.305459637,36.599429775],[138.305366278,36.595668108],[138.30708572,36.593490613],[138.308257912,36.582377],[138.306380947,36.577849252],[138.307374812,36.573106198],[138.309724527,36.572583135],[138.310762023,36.570133973],[138.317957328,36.567427865],[138.318903139,36.563373694],[138.3167262,36.560624802],[138.310997562,36.559281748],[138.308062529,36.554055667],[138.311429468,36.550459279],[138.310012218,36.547344279],[138.304956355,36.544189],[138.304337756,36.542104559],[138.302503022,36.542037613],[138.29819856,36.535527054],[138.293877419,36.532298721],[138.282083502,36.536921225],[138.277700143,36.535701775],[138.275501245,36.532572613],[138.27518511,36.528604],[138.270342023,36.523452333],[138.270943385,36.519100973],[138.26796144,36.516921802],[138.266486978,36.513231532],[138.261702244,36.51510764],[138.258517523,36.514116802],[138.249855006,36.515696802],[138.246755253,36.510002081],[138.239368003,36.509489306],[138.235313554,36.512891252],[138.229486057,36.514163198],[138.221251284,36.50921736],[138.220891829,36.507159027],[138.211739027,36.508190973],[138.204518755,36.511507081],[138.199847082,36.511159586],[138.198359053,36.51506736],[138.199409079,36.522934559],[138.193251051,36.530462333],[138.190425811,36.539614],[138.187201946,36.543079],[138.180824137,36.542918441],[138.171176939,36.548763171],[138.172793917,36.553220108],[138.167760895,36.559167027],[138.156571699,36.557415667],[138.151259222,36.560066198],[138.149324501,36.559724559],[138.148380026,36.557305667],[138.141535577,36.556869838],[138.132997808,36.558184559],[138.128952529,36.555205387],[138.128008885,36.550137892],[138.115396887,36.541929559],[138.107442166,36.540264559],[138.096454916,36.539586775],[138.091134112,36.541484279],[138.089256589,36.539478721],[138.087075499,36.54237064],[138.080848275,36.544000919],[138.066297445,36.539904802],[138.053299663,36.542508946],[138.046263554,36.539708387],[138.043965162,36.529261721],[138.042307912,36.527446441],[138.043926226,36.519685081],[138.038990078,36.515906468],[138.038456446,36.512976468],[138.040141167,36.511210108],[138.035125616,36.510968694],[138.034871141,36.508231505],[138.032335032,36.505813441],[138.029638003,36.490635135],[138.039119364,36.487779306],[138.032988249,36.484818748],[138.021308249,36.484128198],[138.012360999,36.479785694],[138.005308223,36.480159559],[137.977122581,36.460701532],[137.973582335,36.462015414],[137.968419831,36.461356225],[137.963591777,36.463467892],[137.9646707,36.467977613],[137.961414034,36.466503171],[137.959354864,36.467919559],[137.95648131,36.47547064],[137.949319663,36.482657838],[137.949831634,36.485067279],[137.956543839,36.485296441],[137.957632192,36.488338387],[137.954329196,36.496503081],[137.949841725,36.501448081],[137.956593113,36.501242252],[137.963522827,36.505303919],[137.964070921,36.506690027],[137.961238418,36.508919468],[137.965930947,36.512546973],[137.966938197,36.516506667],[137.957970195,36.523298865],[137.956869364,36.525232468],[137.957839922,36.526992748],[137.956325746,36.527188865],[137.953123528,36.52350636],[137.94962214,36.523931081],[137.940800999,36.518932198],[137.939866524,36.51670636],[137.930917393,36.51960636],[137.92999131,36.521929667],[137.93118022,36.524684387],[137.926923554,36.525526054],[137.925867756,36.531174387],[137.923341089,36.531102135],[137.925183359,36.537037973],[137.921295863,36.536325468],[137.920801699,36.538012694],[137.919308638,36.536938252],[137.919691997,36.540558252],[137.917125616,36.540069081],[137.919153385,36.543033532],[137.917422581,36.544224892],[137.917610947,36.549805171],[137.92017489,36.554863225],[137.92656406,36.558731838],[137.926093839,36.565173505],[137.929031051,36.565455721],[137.93180358,36.571905973],[137.935628301,36.572970721],[137.932482218,36.576414306],[137.935749196,36.579392919],[137.935633113,36.583752081],[137.939518975,36.587095135],[137.938812335,36.591441802],[137.941768716,36.594782081],[137.953466498,36.595155135],[137.962968197,36.603833775],[137.97430428,36.600780171],[137.977422049,36.602845171],[137.986202827,36.596478802],[137.993038975,36.59973436],[137.999185058,36.597950748],[138.002345357,36.600581027],[138.001190078,36.601072135],[138.002569559,36.60479464],[138.000000947,36.606130468],[138.002353165,36.608081306],[138.003296835,36.613771865],[137.998335499,36.623039054],[138.000317173,36.624848225],[138.002188885,36.632224613],[138.000471971,36.638870171],[138.013084864,36.657452667],[137.995626861,36.661572387],[137.994095227,36.66516764],[137.993467691,36.662197081],[137.987869079,36.662896252],[137.988542996,36.664434027],[137.981714112,36.66630764],[137.978280272,36.671013198],[137.974986394,36.672623198],[137.969673022,36.667858748],[137.96013083,36.672523171],[137.955388612,36.669002892],[137.944514747,36.672038721],[137.941346109,36.669489279],[137.936275551,36.669533135],[137.93492083,36.664876468],[137.926026355,36.660442586],[137.924430246,36.658053694],[137.916480246,36.657656441],[137.912849728,36.661448108],[137.910105837,36.661577279],[137.917441193,36.681828108],[137.915129001,36.684577838],[137.916066161,36.689094108],[137.914216252,36.692993387],[137.918627912,36.694289252],[137.92025655,36.69810536],[137.923960169,36.699659532],[137.924614086,36.704608973],[137.929517445,36.712603694],[137.928041803,36.714420721],[137.930452477,36.719121108],[137.927173891,36.723203135],[137.933750311,36.725402613],[137.93729144,36.731621775],[137.943436498,36.737510973],[137.944985694,36.741633468],[137.953218249,36.748338775],[137.952888833,36.755482667],[137.956968029,36.758746279],[137.957775279,36.762791],[137.961012529,36.76316464],[137.964700895,36.770416559],[137.966831725,36.769626559],[137.967925331,36.771032946],[137.967769001,36.781313198],[137.975472088,36.786456252],[137.976559883,36.794149559],[137.980730467,36.80167064],[137.989184695,36.811517838],[137.996406394,36.816217802],[138.003233139,36.826435559],[138.007218145,36.825043892],[138.008632581,36.822658054],[138.011324527,36.823301387],[138.017040078,36.818826387],[138.021351751,36.819559721],[138.024270636,36.816826108],[138.02887869,36.817113892],[138.031215357,36.815238892],[138.030355331,36.813498613],[138.033724501,36.810706667],[138.033797276,36.808833333],[138.041292555,36.807661108],[138.045355616,36.809803054],[138.05151978,36.807641667],[138.05175083,36.801502775],[138.053402503,36.799978892],[138.061773359,36.803703892],[138.067575888,36.803633306],[138.070703385,36.805299694],[138.075283722,36.810703027],[138.0734193,36.813817721],[138.073520726,36.817863838],[138.074729339,36.817788279],[138.081576394,36.830072946],[138.08603808,36.834296838],[138.089164773,36.835733225],[138.08910808,36.834695441]]]]},"properties":{"n03_007":"20201","\u6700\u5927\u9707\u5EA6":"4","\u9707\u5EA6\u5024":4,"color":"#FAE696"}},{"type":"Feature","geometry":{"type":"MultiPolygon","coordinates":[[[[138.217409053,36.866375441],[138.229607912,36.864146838],[138.24237345,36.864026532],[138.249313995,36.865334306],[138.254517328,36.870051532],[138.257433696,36.868255135],[138.258414527,36.863368468],[138.268356693,36.860457081],[138.271693917,36.855283748],[138.270570246,36.844091838],[138.274901634,36.840854333],[138.274298003,36.837660171],[138.275736615,36.836734333],[138.271531336,36.829971],[138.261824358,36.822088505],[138.272731855,36.820817108],[138.276305279,36.818507721],[138.277274163,36.819601306],[138.28040083,36.816112613],[138.275504721,36.814991054],[138.274191946,36.813655919],[138.275443061,36.81292036],[138.270641115,36.807094532],[138.267874306,36.807469054],[138.264274306,36.804719892],[138.258697367,36.805744054],[138.256906524,36.804622946],[138.257329585,36.803026279],[138.252422633,36.803699613],[138.251624527,36.790317973],[138.248674527,36.789321306],[138.247831725,36.787202973],[138.244358664,36.788075468],[138.245735888,36.785618532],[138.241358664,36.786089919],[138.238673671,36.783265468],[138.236318366,36.783031279],[138.237353359,36.78235464],[138.235305577,36.780821027],[138.232152529,36.782372387],[138.230731673,36.778783505],[138.223088885,36.778778225],[138.219073865,36.773716279],[138.216623333,36.775065171],[138.215365772,36.770221],[138.212684669,36.767266],[138.214520752,36.765450441],[138.21332214,36.762638775],[138.214282672,36.759734613],[138.208603217,36.758878225],[138.199968223,36.760110721],[138.19499594,36.753957667],[138.193661777,36.754489892],[138.195089585,36.756505441],[138.190690947,36.753731838],[138.188320143,36.755540721],[138.176422607,36.751350973],[138.178883722,36.750647946],[138.179622309,36.747559613],[138.1748762,36.748277081],[138.165279533,36.746630973],[138.166053411,36.748800135],[138.140120921,36.747534838],[138.129457912,36.753071505],[138.122759948,36.76140036],[138.120118949,36.774315054],[138.126117367,36.785228108],[138.122252387,36.785934198],[138.119270973,36.782656135],[138.114087367,36.782153081],[138.112670143,36.783307252],[138.104696783,36.779545306],[138.098488444,36.779648081],[138.096250726,36.785745586],[138.097495253,36.794681946],[138.095289468,36.800912468],[138.099497562,36.803294135],[138.101639831,36.809899414],[138.100392114,36.816403559],[138.09642297,36.821107694],[138.096630532,36.82555936],[138.092227756,36.826217973],[138.08897083,36.830030171],[138.089164773,36.835733225],[138.092273385,36.836394892],[138.093338975,36.840199865],[138.099341505,36.843558198],[138.106346226,36.843784027],[138.114953217,36.850392333],[138.124176252,36.847924586],[138.131837912,36.850670721],[138.1410162,36.847125748],[138.1474262,36.849377721],[138.150536161,36.846321892],[138.155985577,36.845088865],[138.169017756,36.845072532],[138.172404968,36.847501441],[138.176071336,36.847697279],[138.177500246,36.851784505],[138.195594358,36.85367236],[138.203385447,36.857138775],[138.206147393,36.859701],[138.206407691,36.862988225],[138.213788275,36.871149865],[138.213034358,36.868296],[138.217409053,36.866375441]]]]},"properties":{"n03_007":"20583","\u6700\u5927\u9707\u5EA6":"4","\u9707\u5EA6\u5024":4,"color":"#FAE696"}},{"type":"Feature","geometry":{"type":"MultiPolygon","coordinates":[[[[137.635612996,36.025895865],[137.646908249,36.020411694],[137.651891608,36.020454775],[137.6570638,36.013500333],[137.665540467,36.010809505],[137.672351855,36.010701171],[137.681654669,36.016811441],[137.689412698,36.014471748],[137.695205473,36.01476036],[137.697600195,36.010880081],[137.703821025,36.010115919],[137.700474358,36.007837586],[137.702912944,36.004448694],[137.697758495,35.995693973],[137.70100847,35.987032892],[137.696633995,35.979266225],[137.69624869,35.969135387],[137.699968145,35.967367892],[137.700410921,35.964364586],[137.703848145,35.96372264],[137.706217834,35.958011532],[137.71228061,35.955854586],[137.716338664,35.951619027],[137.720093645,35.941854613],[137.72791,35.935175721],[137.734020558,35.933153775],[137.741077471,35.924209892],[137.751260506,35.918047135],[137.753556887,35.915179081],[137.755291025,35.908151586],[137.768290195,35.903643252],[137.774829922,35.906983252],[137.779139974,35.917539919],[137.78395192,35.920626865],[137.792029416,35.921579613],[137.792691362,35.924388775],[137.801796939,35.926169892],[137.80118358,35.921907946],[137.806719974,35.914514333],[137.804359663,35.906296865],[137.806568275,35.903411027],[137.804487419,35.89844436],[137.811241025,35.893732414],[137.814582672,35.887577973],[137.813361803,35.881827694],[137.816132361,35.878561892],[137.815689027,35.876231892],[137.806517886,35.869797441],[137.808529248,35.866261613],[137.805257588,35.858675775],[137.804395331,35.850385775],[137.810136978,35.848076919],[137.810841699,35.846288586],[137.8059,35.834279414],[137.808460558,35.831181081],[137.816215811,35.828742198],[137.821402438,35.814872775],[137.824097445,35.813123613],[137.828268521,35.806297505],[137.825365473,35.801033333],[137.815648495,35.797088333],[137.808739857,35.790869171],[137.800432088,35.789145],[137.793635694,35.789591667],[137.791461284,35.793540559],[137.786253774,35.795962225],[137.777834086,35.806229721],[137.770317134,35.812053306],[137.763520778,35.813420252],[137.754737134,35.811736081],[137.750310467,35.812638586],[137.746412438,35.818331081],[137.73696022,35.817575802],[137.733023554,35.822528027],[137.725971051,35.823060802],[137.721206057,35.820534973],[137.704643554,35.822156081],[137.696919948,35.820100802],[137.696789663,35.816516081],[137.695182996,35.814908586],[137.689802412,35.812019973],[137.684611855,35.811950532],[137.678041582,35.804650802],[137.67406655,35.802784414],[137.67038655,35.798088586],[137.671532387,35.796266081],[137.669796252,35.792238306],[137.667218755,35.790918865],[137.661724306,35.79185636],[137.661134034,35.789877198],[137.657809857,35.789712468],[137.650735162,35.795466919],[137.645162944,35.796317198],[137.642376835,35.794181667],[137.635676005,35.793504721],[137.630250726,35.794797775],[137.629519053,35.797629973],[137.607646524,35.794707775],[137.605698223,35.802943865],[137.606147173,35.813484135],[137.608302996,35.817223865],[137.614328029,35.819040802],[137.613699144,35.821344973],[137.618777782,35.828644973],[137.618169728,35.832396081],[137.611356135,35.839362468],[137.606971141,35.838814414],[137.605428911,35.833914694],[137.60933917,35.830253586],[137.606091946,35.828234973],[137.602229416,35.823346081],[137.600737173,35.818513027],[137.595623839,35.814100802],[137.588286329,35.81854664],[137.587346887,35.822039414],[137.58483856,35.822774135],[137.581846913,35.828117198],[137.581411634,35.831313027],[137.578011946,35.833521892],[137.578440272,35.840539667],[137.575672244,35.843875505],[137.576110026,35.846683],[137.573381699,35.848979387],[137.573364501,35.852678],[137.560170584,35.857008532],[137.557636978,35.859387414],[137.546443333,35.861373532],[137.535037497,35.866494613],[137.53239358,35.866020171],[137.52418275,35.870591252],[137.515124669,35.872625973],[137.511794669,35.87153264],[137.50459214,35.87252264],[137.499677419,35.878943171],[137.496969883,35.877857613],[137.490560726,35.884275387],[137.483074034,35.888718694],[137.480746809,35.893020081],[137.476169001,35.894017306],[137.481932088,35.900527865],[137.481097639,35.905754775],[137.484456278,35.908631171],[137.483259883,35.913315333],[137.484214617,35.916102559],[137.489328249,35.919822],[137.492422996,35.925329748],[137.497749689,35.928819468],[137.503556109,35.939887802],[137.510723917,35.941121135],[137.518731479,35.939682252],[137.524519001,35.94246364],[137.524258171,35.944961135],[137.532557393,35.961617225],[137.541982724,35.966628054],[137.541372166,35.969264441],[137.544577471,35.974212748],[137.54495275,35.978221919],[137.542929974,35.980409694],[137.544787198,35.984103865],[137.562232529,35.990084694],[137.569113943,35.995693586],[137.575715888,35.995492775],[137.580816744,36.001364721],[137.59029594,36.006541108],[137.59477594,36.012915279],[137.59401345,36.014503054],[137.59949406,36.025936081],[137.607192387,36.025345838],[137.612828495,36.018420279],[137.619870999,36.019552505],[137.622164916,36.024426667],[137.625648807,36.023555],[137.633141582,36.026769198],[137.635612996,36.025895865]]]]},"properties":{"n03_007":"20432","\u6700\u5927\u9707\u5EA6":"6-","\u9707\u5EA6\u5024":6,"color":"#FF2800"}},{"type":"Feature","geometry":{"type":"MultiPolygon","coordinates":[[[[137.80841703,35.641404505],[137.81209144,35.641856171],[137.818407004,35.635476171],[137.819693359,35.631728667],[137.81939,35.620697838],[137.82356,35.615555054],[137.817249689,35.610532279],[137.815163865,35.602900613],[137.8236138,35.593860333],[137.820234332,35.587540613],[137.820860999,35.583944225],[137.81672489,35.581409775],[137.816946498,35.574804802],[137.810710389,35.568399532],[137.818691193,35.566533414],[137.828820895,35.56156064],[137.83248808,35.557898135],[137.833542503,35.55052064],[137.835452503,35.548563694],[137.839965551,35.54746564],[137.843067756,35.549801279],[137.845897471,35.549404027],[137.864916498,35.53885564],[137.868360558,35.533441946],[137.870655551,35.532153973],[137.871794228,35.533302838],[137.877683943,35.530040333],[137.87102978,35.521732],[137.86736144,35.519403108],[137.862922283,35.511778081],[137.862635357,35.499317802],[137.869048975,35.498594748],[137.872329805,35.499896973],[137.882669248,35.497388919],[137.883881219,35.493563919],[137.882882892,35.490121108],[137.884636498,35.488767505],[137.877487056,35.487968333],[137.870521193,35.491843081],[137.873070117,35.487276667],[137.874654838,35.488145559],[137.876027328,35.486988892],[137.87371594,35.485307225],[137.87630511,35.477910279],[137.883556498,35.477195],[137.884754306,35.475709721],[137.882959585,35.472671946],[137.886783476,35.468348333],[137.899871245,35.463844135],[137.911982088,35.463707468],[137.915461803,35.459023027],[137.914285694,35.454809414],[137.91581153,35.452772468],[137.912642361,35.446511081],[137.913227082,35.444651919],[137.920314864,35.440212441],[137.9183993,35.437882171],[137.922177082,35.437893],[137.922596809,35.435713559],[137.924652918,35.435127171],[137.939107665,35.433335775],[137.946540999,35.427021306],[137.952945746,35.430015748],[137.963877717,35.440992667],[137.961972166,35.447675198],[137.962921894,35.449547135],[137.971687717,35.461257135],[137.975565227,35.463367973],[137.984125227,35.474139387],[137.987652438,35.480605505],[137.987002438,35.486027171],[137.991080778,35.493184135],[137.995103839,35.493493027],[137.99732856,35.490624414],[138.002744112,35.488806919],[138.014740272,35.478197721],[138.018456109,35.476807721],[138.01977,35.474485775],[138.031147808,35.469150468],[138.033134189,35.465174919],[138.035929468,35.464071306],[138.038622283,35.457640468],[138.049529494,35.462616865],[138.053405888,35.468941333],[138.067422283,35.476869973],[138.070389533,35.481089973],[138.07010703,35.483408333],[138.072883139,35.481697505],[138.083202607,35.485711387],[138.088690389,35.482045279],[138.0945493,35.474697775],[138.107079883,35.473277225],[138.108454617,35.471913892],[138.111807912,35.464566108],[138.118969027,35.458223054],[138.120472633,35.454608892],[138.119342892,35.445978613],[138.123962555,35.435660838],[138.120353061,35.4301],[138.12152083,35.428556667],[138.129139442,35.427219721],[138.139803022,35.422654748],[138.138734643,35.415778081],[138.134568781,35.413210027],[138.134778755,35.407823081],[138.140216226,35.405559468],[138.144502607,35.406039225],[138.148980337,35.399975892],[138.153130026,35.397235892],[138.151335499,35.390085081],[138.147899663,35.387719252],[138.145703502,35.383639252],[138.141298664,35.369628441],[138.129471997,35.365277865],[138.124018145,35.368047306],[138.118118418,35.36619536],[138.107189248,35.360380333],[138.101038664,35.354438946],[138.096900052,35.354225333],[138.093774189,35.349970333],[138.096798885,35.347213946],[138.095989105,35.339642027],[138.084431634,35.337945892],[138.078984747,35.343533667],[138.070631193,35.34733336],[138.061209274,35.347145838],[138.055583139,35.343982775],[138.055166446,35.339772802],[138.051033385,35.335644468],[138.043317004,35.335236973],[138.037556719,35.332924748],[138.039206667,35.326140865],[138.02618275,35.320406721],[138.027710752,35.311563387],[138.019723502,35.301496198],[138.005677108,35.304395081],[137.992093217,35.301703973],[137.982357613,35.292393441],[137.973658716,35.293240667],[137.966983385,35.28284764],[137.963923139,35.284611802],[137.959082827,35.282680135],[137.951890337,35.283081532],[137.94402144,35.276205171],[137.929252555,35.275470171],[137.928257004,35.270307387],[137.926244501,35.268905171],[137.924902529,35.260508775],[137.918407523,35.254253532],[137.912418366,35.253328802],[137.895356226,35.258004613],[137.894054864,35.264273775],[137.896794034,35.267919613],[137.895700143,35.272603505],[137.900033191,35.280787387],[137.887342724,35.28829236],[137.886135811,35.290554865],[137.884428301,35.290180414],[137.883990532,35.292368468],[137.878620272,35.294001802],[137.874403917,35.294414865],[137.871459196,35.290414027],[137.868548106,35.291905414],[137.864691997,35.288905135],[137.863276744,35.291030135],[137.864906744,35.293704586],[137.86312786,35.295579838],[137.864432335,35.304170946],[137.860826524,35.306668721],[137.860381245,35.311030387],[137.845460713,35.314016811],[137.843373372,35.316414225],[137.845543554,35.314670081],[137.849532724,35.315791468],[137.851706329,35.319109532],[137.849107173,35.320292865],[137.851605772,35.320991198],[137.852852996,35.323837586],[137.860507419,35.323128973],[137.867319857,35.320535919],[137.871953476,35.32318036],[137.877192892,35.322610946],[137.883483139,35.324418441],[137.885112866,35.324273441],[137.886997276,35.320141505],[137.892487834,35.323738441],[137.896195577,35.322402613],[137.904148638,35.329788171],[137.916219468,35.336832586],[137.920546446,35.343948387],[137.924057004,35.344855892],[137.924573411,35.349058946],[137.923102335,35.352919225],[137.926920143,35.356245027],[137.92760406,35.360550027],[137.921289053,35.360550865],[137.913406005,35.356966721],[137.904102387,35.358649225],[137.902384358,35.359705892],[137.903843256,35.363271135],[137.90276939,35.364994198],[137.89473275,35.369215306],[137.890967497,35.373453919],[137.893868911,35.379414198],[137.891049196,35.380744748],[137.887159222,35.386019441],[137.878054228,35.385309721],[137.871552309,35.387499721],[137.869547886,35.391237775],[137.865917886,35.392736667],[137.866355694,35.397380838],[137.863705136,35.397737775],[137.862200415,35.396116946],[137.860137912,35.400621387],[137.85144214,35.406343892],[137.838883839,35.409288333],[137.839117445,35.410494721],[137.835203022,35.411489721],[137.834709689,35.413358892],[137.83069275,35.412040279],[137.830696083,35.414581387],[137.827613333,35.414852775],[137.826026109,35.417836387],[137.822603645,35.418868333],[137.816720584,35.417866946],[137.815470337,35.424246919],[137.812416719,35.422755252],[137.791719027,35.426991919],[137.783578495,35.425450532],[137.777470143,35.418374973],[137.767194034,35.421165802],[137.765106252,35.424958586],[137.765084332,35.430973306],[137.761239339,35.430969135],[137.761078249,35.436705802],[137.75930297,35.439401081],[137.762336615,35.442725252],[137.76290939,35.44643136],[137.76264022,35.453123306],[137.760994916,35.45563164],[137.7622993,35.461413802],[137.758707393,35.46526164],[137.753091829,35.455627198],[137.745517886,35.461061387],[137.743102049,35.463763054],[137.743302866,35.467320279],[137.739715914,35.470436108],[137.732422283,35.471816667],[137.735250026,35.478356387],[137.732056135,35.482194468],[137.731308911,35.486070586],[137.726066394,35.489525586],[137.729275551,35.495663081],[137.740851946,35.501608081],[137.744621634,35.507450027],[137.744660532,35.511122532],[137.739371089,35.515896973],[137.726816913,35.516689468],[137.725262192,35.519743081],[137.71736192,35.52150336],[137.71199192,35.535077],[137.709296641,35.537899775],[137.704334695,35.552597279],[137.70182275,35.554210333],[137.694071634,35.554203946],[137.694306083,35.560993667],[137.690658859,35.562175333],[137.691108586,35.565363667],[137.689221634,35.566617],[137.689475811,35.568782279],[137.692213061,35.569313667],[137.698998366,35.576777279],[137.707670895,35.578530613],[137.713771751,35.583464225],[137.720446498,35.586162279],[137.718361219,35.594271414],[137.715346498,35.596499468],[137.715194034,35.599063081],[137.719382361,35.601491414],[137.721969339,35.606453919],[137.72422297,35.605789468],[137.728382438,35.610546135],[137.72867939,35.612950865],[137.737455253,35.612950865],[137.75358939,35.619896694],[137.759868521,35.627542532],[137.77709847,35.631428387],[137.78163153,35.637206441],[137.787530661,35.639957279],[137.792441219,35.645095054],[137.79262428,35.647332],[137.796020947,35.649607279],[137.797399274,35.653154225],[137.801303411,35.655680892],[137.80994869,35.648342279],[137.80841703,35.641404505]]]]},"properties":{"n03_007":"20205","\u6700\u5927\u9707\u5EA6":"6-","\u9707\u5EA6\u5024":6,"color":"#FF2800"}},{"type":"Feature","geometry":{"type":"MultiPolygon","coordinates":[[[[138.114682607,35.974055],[138.122833995,35.972604171],[138.133867886,35.963596667],[138.133735084,35.962013054],[138.136650947,35.962360559],[138.140908145,35.958380279],[138.143664812,35.958577505],[138.145642581,35.95573864],[138.149864254,35.954971694],[138.152440636,35.950574198],[138.147644773,35.94621336],[138.146651971,35.941321414],[138.150142555,35.940826973],[138.152390026,35.936947532],[138.160843645,35.933407532],[138.165795577,35.926074775],[138.165261388,35.920012559],[138.168463606,35.916752838],[138.172197497,35.916121441],[138.173747224,35.913630892],[138.169332166,35.904772],[138.173061894,35.899298108],[138.171634112,35.896303667],[138.17388131,35.893957865],[138.17421131,35.890522586],[138.1780838,35.891796748],[138.180882412,35.88915064],[138.180897419,35.883973135],[138.17765406,35.878069532],[138.182312944,35.87591064],[138.18366572,35.873436468],[138.17705153,35.867637027],[138.181117367,35.867023973],[138.187829585,35.863087333],[138.188898197,35.857748441],[138.18391428,35.852874559],[138.183778716,35.850565667],[138.176983696,35.844656505],[138.175828145,35.839604838],[138.180679248,35.832988171],[138.175526719,35.823241802],[138.175088949,35.812429306],[138.173159754,35.808813748],[138.173825305,35.805393198],[138.172250584,35.800908198],[138.175990311,35.788376],[138.177495551,35.786185171],[138.187740311,35.781517108],[138.202119196,35.780965441],[138.205933645,35.782697108],[138.216995032,35.771519892],[138.221182244,35.770749333],[138.224678612,35.765688775],[138.232427497,35.763417946],[138.236900272,35.757986838],[138.229558054,35.753045171],[138.22767,35.753665441],[138.222003333,35.750427667],[138.219699144,35.745845441],[138.20705192,35.735487108],[138.200549974,35.733119054],[138.197474423,35.727032414],[138.187980804,35.72315936],[138.180436083,35.715562135],[138.180856083,35.711237694],[138.18672856,35.704375198],[138.191232166,35.701831586],[138.193604384,35.696928802],[138.193698275,35.688961865],[138.191281894,35.685428532],[138.194244916,35.674879919],[138.193340752,35.672153252],[138.205573217,35.664178775],[138.20811406,35.655664333],[138.217109027,35.647728468],[138.218670661,35.644549306],[138.210541219,35.634590973],[138.20337153,35.632115694],[138.202377056,35.618309027],[138.206073411,35.608179],[138.195363696,35.594679865],[138.194552866,35.588445387],[138.189009533,35.581351225],[138.189490636,35.576780946],[138.184398975,35.573091775],[138.178204254,35.574954865],[138.172841751,35.581601802],[138.167269248,35.582903468],[138.161518145,35.580980721],[138.160162309,35.57622264],[138.15714703,35.573026532],[138.151810363,35.570959865],[138.146765084,35.576281279],[138.140834228,35.577357667],[138.135938418,35.581620198],[138.130878106,35.58125464],[138.127197276,35.58630436],[138.125083696,35.593940775],[138.121521751,35.596557171],[138.115672581,35.597292721],[138.108593139,35.603364414],[138.101048444,35.614973892],[138.104388755,35.618615838],[138.10396489,35.622663892],[138.105940467,35.626830027],[138.101982218,35.645320333],[138.102533917,35.648677306],[138.09917,35.647809252],[138.098266978,35.650736198],[138.095375006,35.651340054],[138.091958301,35.654888108],[138.092586913,35.656398108],[138.088222166,35.663563919],[138.085546329,35.672951973],[138.079520441,35.678909441],[138.077113502,35.694324414],[138.061372607,35.70353964],[138.064284553,35.710613802],[138.06255511,35.716684081],[138.062863165,35.723583225],[138.060550636,35.725449613],[138.061987886,35.733902946],[138.057963139,35.73470264],[138.052463411,35.739564306],[138.051972581,35.744943441],[138.049221997,35.745467613],[138.048671725,35.748809],[138.042790052,35.755043721],[138.045227562,35.760699532],[138.04006061,35.766943414],[138.033878949,35.770187586],[138.031555888,35.769885613],[138.029082283,35.772426721],[138.022900026,35.771838387],[138.003385006,35.779108081],[137.992529689,35.778670306],[137.984392477,35.781745],[137.980443022,35.781174171],[137.976422477,35.777616108],[137.974935499,35.772841667],[137.970548275,35.769216946],[137.965115473,35.769841667],[137.963278003,35.772070559],[137.964573554,35.774782775],[137.959982166,35.778245838],[137.958999105,35.780994441],[137.953470506,35.77607],[137.953774669,35.773982775],[137.951545746,35.77387],[137.951104086,35.771120279],[137.9466338,35.771157775],[137.942809079,35.773315559],[137.937767977,35.772873892],[137.934126589,35.775056667],[137.933568249,35.774181946],[137.933105746,35.776456387],[137.930060195,35.775456387],[137.925319079,35.777005838],[137.924339922,35.778826387],[137.926868833,35.782518054],[137.930705772,35.786588613],[137.937555253,35.790109441],[137.930093281,35.787255279],[137.9194738,35.778909441],[137.90876214,35.781913054],[137.880947691,35.784707775],[137.872003839,35.795425838],[137.868485772,35.803968333],[137.860851894,35.806281387],[137.843279663,35.805343333],[137.833827445,35.807877775],[137.829713256,35.805764441],[137.827674086,35.806657505],[137.824097445,35.813123613],[137.833280804,35.818930252],[137.836973865,35.823283586],[137.838466394,35.828608027],[137.841383061,35.829688865],[137.844377523,35.834297748],[137.847419754,35.834839973],[137.847119468,35.837472748],[137.849470026,35.838922748],[137.84613725,35.842275252],[137.846282581,35.856778279],[137.85412594,35.859572441],[137.856291803,35.867737721],[137.859322633,35.867924081],[137.863027912,35.871820748],[137.865570143,35.87166464],[137.875426524,35.866658802],[137.876843476,35.864445468],[137.882072361,35.864737414],[137.891290143,35.860545505],[137.882275162,35.874288252],[137.876494358,35.878886586],[137.877410506,35.887713252],[137.883258586,35.894941838],[137.882826355,35.899936],[137.890716394,35.901639054],[137.905080246,35.895416559],[137.922354449,35.899671559],[137.922963645,35.905207667],[137.927333087,35.905541],[137.93757725,35.901963505],[137.939649754,35.903249892],[137.950159754,35.901761],[137.95019083,35.896297667],[137.955326109,35.894917946],[137.953534721,35.890340468],[137.95008192,35.889106306],[137.945769728,35.890059081],[137.939395006,35.894381],[137.932666887,35.882733252],[137.935557445,35.879648532],[137.938520778,35.880257694],[137.942562166,35.878961306],[137.94189022,35.877867973],[137.952915499,35.875686027],[137.952774942,35.87325936],[137.950764643,35.871665748],[137.952915746,35.869821865],[137.951207419,35.870400198],[137.950973256,35.868046306],[137.94754131,35.865812171],[137.940375447,35.863869667],[137.937099364,35.866853252],[137.93529214,35.871331865],[137.929011025,35.871967135],[137.93001655,35.866915468],[137.928553217,35.864103532],[137.921173217,35.864806586],[137.906669027,35.862467694],[137.905622361,35.858952721],[137.911757367,35.856078],[137.929860973,35.854651613],[137.946922088,35.849965225],[137.954936589,35.865020505],[137.97342489,35.853709946],[137.978814643,35.860313559],[137.9840638,35.863797441],[137.984339663,35.873759946],[137.987058029,35.878035225],[137.990314137,35.877763],[137.991344423,35.879790225],[137.996333333,35.880956892],[138.001521388,35.880579387],[138.008083606,35.885283838],[138.015991388,35.885062441],[138.017020026,35.888430505],[138.024919196,35.891242721],[138.027870337,35.895165775],[138.031589494,35.893655802],[138.037296161,35.897674694],[138.037429805,35.901598865],[138.041144254,35.904399135],[138.046989027,35.915589414],[138.054909027,35.919406081],[138.063504306,35.915148586],[138.067112088,35.915719414],[138.070114617,35.922262198],[138.075783774,35.924861919],[138.08123131,35.930350252],[138.085004137,35.940234694],[138.090284968,35.945790802],[138.090626939,35.948055252],[138.086525006,35.953874135],[138.086550026,35.960180252],[138.089297004,35.96435636],[138.092283385,35.967614135],[138.101718418,35.967690532],[138.113141505,35.973132775],[138.113153165,35.974853613],[138.114682607,35.974055]]]]},"properties":{"n03_007":"20209","\u6700\u5927\u9707\u5EA6":"6-","\u9707\u5EA6\u5024":6,"color":"#FF2800"}},{"type":"Feature","geometry":{"type":"MultiPolygon","coordinates":[[[[137.98336358,35.781453333],[137.995050558,35.778349748],[138.003385006,35.779108081],[138.016363359,35.774957559],[138.017280584,35.773067279],[138.029082283,35.772426721],[138.031555888,35.769885613],[138.033878949,35.770187586],[138.04006061,35.766943414],[138.045227562,35.760699532],[138.042790052,35.755043721],[138.048671725,35.748809],[138.049221997,35.745467613],[138.051972581,35.744943441],[138.052463411,35.739564306],[138.057963139,35.73470264],[138.061987886,35.733902946],[138.060550636,35.725449613],[138.062863165,35.723583225],[138.063876226,35.708364081],[138.059832309,35.702407973],[138.05467703,35.700766586],[138.050630052,35.701945198],[138.046685577,35.698296306],[138.043408638,35.691386865],[138.045459196,35.686032135],[138.043806978,35.683260748],[138.043716135,35.673676892],[138.038383333,35.670942973],[138.035772477,35.667022414],[138.03282275,35.667826306],[138.026604942,35.674707667],[138.01954214,35.675956559],[138.016169079,35.672821559],[138.013996278,35.672981802],[138.011030999,35.675810414],[138.008158223,35.675674306],[137.999282361,35.679679279],[137.985507056,35.675532892],[137.98403511,35.681648694],[137.980071219,35.682852306],[137.978121219,35.685464532],[137.976715357,35.691584532],[137.963487302,35.687843135],[137.9553462,35.682681198],[137.948750895,35.682008414],[137.950471193,35.686763946],[137.955649805,35.692550892],[137.951712309,35.700499775],[137.932644254,35.700607838],[137.919891193,35.703803108],[137.919249533,35.705386171],[137.907708975,35.706048387],[137.907580078,35.704698667],[137.902059805,35.702798667],[137.898176744,35.703207],[137.8972562,35.701361441],[137.890019248,35.701432],[137.88980703,35.698228108],[137.886478145,35.696120054],[137.873408975,35.693236721],[137.869487588,35.696308108],[137.871134527,35.699212],[137.867371479,35.701115333],[137.861864812,35.700182838],[137.862720078,35.702957],[137.858202023,35.705016441],[137.850532309,35.702870892],[137.843593969,35.706308667],[137.825722023,35.711333667],[137.821183139,35.715403081],[137.816798145,35.716850027],[137.816732023,35.719455586],[137.805062607,35.726097802],[137.804930117,35.73575836],[137.80328428,35.740464468],[137.813818171,35.75330836],[137.812208444,35.761931694],[137.810554838,35.763511135],[137.809324864,35.781389748],[137.818084034,35.778774748],[137.820592607,35.775307532],[137.830960661,35.768025586],[137.840052633,35.76626836],[137.846667082,35.760175865],[137.854174864,35.75927336],[137.854982088,35.760670586],[137.857047912,35.760327802],[137.859226809,35.756474468],[137.858111505,35.753545027],[137.860040661,35.751619468],[137.85873345,35.750755027],[137.859922892,35.747800865],[137.866530415,35.751527802],[137.874690117,35.747616694],[137.911037639,35.749816414],[137.963944617,35.750491414],[137.958849611,35.758238892],[137.960986589,35.770216667],[137.959982166,35.778245838],[137.963965227,35.775866108],[137.964648833,35.773278892],[137.963278003,35.772070559],[137.965115473,35.769841667],[137.970548275,35.769216946],[137.974935499,35.772841667],[137.976422477,35.777616108],[137.980443022,35.781174171],[137.98336358,35.781453333]]]]},"properties":{"n03_007":"20210","\u6700\u5927\u9707\u5EA6":"6-","\u9707\u5EA6\u5024":6,"color":"#FF2800"}},{"type":"Feature","geometry":{"type":"MultiPolygon","coordinates":[[[[140.569058755,36.862287279],[140.569782633,36.859337586],[140.563036329,36.852138468],[140.564035772,36.850063775],[140.558439831,36.848830441],[140.558718975,36.84488936],[140.555507497,36.842953279],[140.560207276,36.840264946],[140.561305616,36.835095559],[140.560038612,36.834004441],[140.560300246,36.830036171],[140.556899883,36.826304802],[140.554819585,36.826684775],[140.544536744,36.812637667],[140.546989001,36.810864054],[140.54705428,36.808571306],[140.540126615,36.804389919],[140.539738755,36.796955532],[140.541917082,36.795010279],[140.542779274,36.79051864],[140.540993385,36.788098919],[140.545219559,36.786194505],[140.541005863,36.784318667],[140.535786498,36.774918108],[140.536285357,36.772421171],[140.541337108,36.771440387],[140.542195694,36.767202054],[140.54596406,36.763062108],[140.549532438,36.762085468],[140.552213645,36.764627414],[140.557625383,36.761758586],[140.558475668,36.759923586],[140.554774112,36.751850532],[140.55805275,36.747546414],[140.555148781,36.74515],[140.561398521,36.737912279],[140.560142114,36.735992279],[140.562001855,36.734543694],[140.556292802,36.729696135],[140.559209754,36.724014775],[140.557416057,36.718873946],[140.555112944,36.717341171],[140.554769831,36.713548387],[140.540962361,36.709128054],[140.540121505,36.707155279],[140.542800947,36.701230838],[140.541778949,36.699171667],[140.537499416,36.697271946],[140.539466109,36.694080027],[140.539401336,36.689537802],[140.545490272,36.682639505],[140.543455227,36.681486441],[140.549908638,36.678913108],[140.549206641,36.672661721],[140.547184112,36.671934505],[140.549786887,36.667534225],[140.5486838,36.665929505],[140.545130973,36.667784505],[140.54090703,36.665937279],[140.54028144,36.662934775],[140.542055888,36.661823667],[140.541061673,36.654516441],[140.537665499,36.653927],[140.537329105,36.655493667],[140.534891855,36.656140613],[140.53051345,36.650744505],[140.517817198,36.651573946],[140.51669939,36.649858135],[140.517816589,36.642708973],[140.523815253,36.640842865],[140.533176109,36.628541748],[140.537495863,36.626527027],[140.537928885,36.619753667],[140.53924834,36.617383108],[140.541685279,36.616696721],[140.542742503,36.613144775],[140.549139857,36.621241441],[140.55349572,36.619233108],[140.557574423,36.622064748],[140.565870052,36.621592252],[140.575877977,36.624360306],[140.580284384,36.621517505],[140.587713645,36.620983027],[140.585157497,36.617548865],[140.585479974,36.614488306],[140.582745772,36.611538586],[140.588335253,36.606882694],[140.585069364,36.602168252],[140.585685188,36.598870198],[140.584232672,36.599004919],[140.580771505,36.594951027],[140.581932607,36.591697387],[140.577990584,36.585962946],[140.580224189,36.58052264],[140.578363307,36.573564586],[140.583326161,36.573906225],[140.58230917,36.565383721],[140.585372802,36.564322027],[140.586082802,36.558218135],[140.592390363,36.553501414],[140.591267004,36.551370027],[140.592526472,36.548731414],[140.589946394,36.54335336],[140.591993061,36.538692252],[140.596573385,36.536742505],[140.599645305,36.527141946],[140.601575888,36.525276387],[140.599131388,36.523411946],[140.600005837,36.521359441],[140.590128716,36.519463414],[140.593055422,36.515783414],[140.592087613,36.514644252],[140.583304968,36.512720973],[140.581424137,36.51668764],[140.578195499,36.517806838],[140.576543502,36.513437973],[140.573570143,36.513955198],[140.574580661,36.506951054],[140.564570532,36.507805279],[140.564787471,36.505119441],[140.561634358,36.50437364],[140.561510169,36.502806973],[140.558104034,36.503363108],[140.562118781,36.498548108],[140.559800117,36.494619505],[140.556711997,36.49573064],[140.554944254,36.501013973],[140.550771725,36.504334532],[140.542515227,36.504073468],[140.539613217,36.500658225],[140.535506498,36.499962135],[140.529654773,36.503152973],[140.521076057,36.503845802],[140.510513411,36.501582532],[140.502222412,36.490225946],[140.499941829,36.492090387],[140.500054358,36.496634802],[140.498166589,36.498081748],[140.495598197,36.497394559],[140.495720143,36.494689559],[140.489314773,36.493634865],[140.482163606,36.498799333],[140.46315511,36.506831586],[140.458118975,36.51167436],[140.458277367,36.519837108],[140.449045888,36.524349613],[140.448749248,36.527986532],[140.444095616,36.534325135],[140.443567562,36.536359865],[140.445410363,36.537916252],[140.442501193,36.542690946],[140.452299611,36.541444],[140.452831141,36.544964198],[140.446124358,36.545248721],[140.440840921,36.549125667],[140.440617302,36.550562306],[140.443403774,36.552073108],[140.439559248,36.555563414],[140.439363995,36.559657586],[140.435740636,36.558613973],[140.430788418,36.566959802],[140.439409857,36.567076721],[140.440237393,36.570115613],[140.438838521,36.573502],[140.434753774,36.575584225],[140.435112724,36.579238387],[140.431916329,36.583521441],[140.432743022,36.584902279],[140.428419948,36.586473946],[140.429278885,36.590725054],[140.426471673,36.594928667],[140.431224553,36.602366414],[140.430626252,36.604843081],[140.434478495,36.605626414],[140.43365131,36.609026135],[140.43552358,36.613506667],[140.424651336,36.621771414],[140.423287497,36.62829864],[140.414549416,36.631970054],[140.416385551,36.634214225],[140.417028664,36.639431441],[140.420630636,36.641337802],[140.425283528,36.648255838],[140.429762166,36.647202225],[140.432993359,36.65376164],[140.434705305,36.654498865],[140.437262827,36.654393279],[140.437799754,36.650292198],[140.444305668,36.652658838],[140.447649922,36.659478802],[140.452287173,36.660812667],[140.452896939,36.667238225],[140.446436939,36.670459892],[140.443170558,36.675518225],[140.449789559,36.680374865],[140.44958594,36.682348198],[140.452869883,36.686883721],[140.455239079,36.687459],[140.452204086,36.690127613],[140.451402724,36.693849279],[140.445960195,36.693670135],[140.441872438,36.698869027],[140.44470192,36.700660387],[140.441772192,36.702542081],[140.443011362,36.703913441],[140.442657224,36.705257613],[140.440818301,36.705109306],[140.440877523,36.708738171],[140.437802802,36.710226532],[140.436765331,36.71339764],[140.438180337,36.714480973],[140.430363061,36.712262108],[140.427122244,36.71732964],[140.427117056,36.724626838],[140.419145305,36.724264387],[140.417672529,36.727260505],[140.418411725,36.729798],[140.415318171,36.729898054],[140.415157302,36.732087973],[140.427106809,36.734973198],[140.428446835,36.736938468],[140.435606304,36.733771198],[140.441509339,36.728980081],[140.447117977,36.73058836],[140.449983281,36.732356946],[140.449049974,36.737510559],[140.45099917,36.739600802],[140.448541388,36.741920838],[140.447531699,36.748916919],[140.451378106,36.748286613],[140.451162827,36.749866333],[140.456750636,36.751958252],[140.458300661,36.754264333],[140.466239248,36.746250414],[140.468201219,36.746009306],[140.469842049,36.748463171],[140.465925966,36.751451802],[140.46537153,36.754144586],[140.469933554,36.760159802],[140.465323113,36.774417306],[140.46446869,36.779084802],[140.465567613,36.782078694],[140.462342672,36.790623414],[140.478620363,36.796941667],[140.477879831,36.798196667],[140.48004847,36.799508333],[140.480589611,36.80373636],[140.489323385,36.809576613],[140.488000389,36.818362973],[140.49279214,36.819475721],[140.493607691,36.818239054],[140.49790192,36.819264054],[140.501481115,36.81817264],[140.504423696,36.823169586],[140.51057655,36.821912613],[140.513914968,36.823442892],[140.516862802,36.82685064],[140.519104306,36.836239748],[140.528482827,36.839994721],[140.527923995,36.848365802],[140.535122477,36.852112721],[140.537650026,36.855440198],[140.538035888,36.858856279],[140.546851051,36.858256559],[140.554317613,36.861459279],[140.556912114,36.860054],[140.560788301,36.863531198],[140.565106161,36.862212027],[140.565637302,36.864017586],[140.569058755,36.862287279]]]]},"properties":{"n03_007":"08212","\u6700\u5927\u9707\u5EA6":"4","\u9707\u5EA6\u5024":4,"color":"#FAE696"}},{"type":"Feature","geometry":{"type":"MultiPolygon","coordinates":[[[[140.389377951,36.46391936],[140.394799637,36.461779081],[140.397290441,36.457133532],[140.404710467,36.454843],[140.409934916,36.44782136],[140.411658003,36.449174108],[140.411705032,36.452175946],[140.408060778,36.452737171],[140.409800804,36.455374946],[140.408960532,36.45807436],[140.414453359,36.46086964],[140.417993359,36.45717964],[140.416317497,36.455059387],[140.423712244,36.450609108],[140.426380026,36.445738027],[140.43061978,36.448685775],[140.432922866,36.44739664],[140.432820078,36.451039667],[140.438773191,36.449997171],[140.448671336,36.450789387],[140.448288003,36.452028802],[140.454441051,36.442590225],[140.454212944,36.4367],[140.459055227,36.435020252],[140.456411829,36.430487775],[140.461167419,36.427063027],[140.456914578,36.42432136],[140.453419274,36.426527225],[140.451919001,36.425268892],[140.458895694,36.416045252],[140.458746809,36.414308306],[140.462973502,36.411759946],[140.461622361,36.410501892],[140.472034942,36.402901027],[140.471282412,36.401702973],[140.474557445,36.399073775],[140.480067523,36.404304865],[140.481252802,36.403807081],[140.482793969,36.40795264],[140.48390703,36.407547919],[140.482002827,36.403746532],[140.483539222,36.400082919],[140.488519533,36.397715667],[140.484606394,36.390123748],[140.48480834,36.387633748],[140.487286135,36.386770387],[140.484248301,36.383456532],[140.489276693,36.382226775],[140.488825006,36.380529],[140.492772244,36.37467036],[140.498510117,36.381563414],[140.502703476,36.382331441],[140.510574916,36.374442802],[140.521760804,36.368117198],[140.544060973,36.363192387],[140.552905473,36.359531252],[140.551307134,36.357871],[140.552534086,36.356497667],[140.555416329,36.358016252],[140.562662996,36.350653171],[140.57689144,36.344453694],[140.586814254,36.336681171],[140.58157725,36.335277027],[140.575132114,36.327298171],[140.571288755,36.327584865],[140.567084501,36.322521279],[140.561134449,36.320111279],[140.559116304,36.313286586],[140.552513476,36.314301613],[140.550002387,36.319031333],[140.544409001,36.319052468],[140.532649079,36.308465027],[140.530877108,36.305195027],[140.524325383,36.304907838],[140.521186472,36.306584505],[140.518486161,36.303977586],[140.514193891,36.301819532],[140.512371946,36.30285036],[140.511009416,36.301283973],[140.508907173,36.301529279],[140.509343307,36.304463135],[140.507469637,36.300722892],[140.502890441,36.301796775],[140.501725473,36.303898721],[140.500730169,36.302797333],[140.497478223,36.305643748],[140.49837406,36.306315387],[140.493085746,36.314004586],[140.492897198,36.321809559],[140.490258003,36.320389586],[140.484050441,36.322420414],[140.481469585,36.319888468],[140.476596498,36.322105171],[140.475308106,36.316540441],[140.47147083,36.31511936],[140.465625253,36.316072414],[140.464950532,36.319583252],[140.461188301,36.321865468],[140.459810467,36.318302721],[140.457530169,36.317418],[140.45377489,36.319335505],[140.451264553,36.317673027],[140.442484228,36.320584171],[140.442791414,36.315936946],[140.43481358,36.317069721],[140.424907082,36.315511135],[140.422748755,36.319857],[140.423840169,36.321912252],[140.419082672,36.327876441],[140.418874916,36.330893108],[140.414520999,36.334666441],[140.411137367,36.335476721],[140.409721556,36.338884225],[140.411450467,36.344797838],[140.409076304,36.345428946],[140.40698489,36.345597],[140.403753165,36.339354802],[140.403422581,36.335146198],[140.400842802,36.332634532],[140.402458949,36.331771198],[140.399908885,36.329439532],[140.395332218,36.333265667],[140.391547717,36.328818721],[140.387752944,36.328841225],[140.385677912,36.325881775],[140.387963722,36.320140387],[140.395659611,36.315799838],[140.393342892,36.312911505],[140.375085811,36.312158505],[140.370336329,36.314229054],[140.368784916,36.313255441],[140.356619027,36.317326306],[140.344302309,36.324051586],[140.340633969,36.331593252],[140.333384501,36.335766613],[140.333180078,36.337280505],[140.337101193,36.334783559],[140.338617886,36.336502135],[140.338543995,36.338242694],[140.336876783,36.337563559],[140.333725668,36.339961613],[140.33309345,36.344276892],[140.334821284,36.350855468],[140.338021894,36.353022973],[140.337277717,36.35605936],[140.342614475,36.361554333],[140.336089494,36.374747667],[140.32225725,36.38275464],[140.323208418,36.390762973],[140.321740636,36.392651865],[140.330830999,36.395907387],[140.333702672,36.394849892],[140.338875772,36.396192919],[140.345298859,36.394296252],[140.348239196,36.39737236],[140.354384812,36.399655946],[140.355516498,36.404102613],[140.349988171,36.410345387],[140.348934306,36.416182892],[140.349979339,36.418692027],[140.347878781,36.42058536],[140.341051219,36.421470387],[140.33917345,36.423751505],[140.339190947,36.427383532],[140.337140999,36.429135333],[140.338483191,36.430107586],[140.342104617,36.429892586],[140.345713554,36.432445081],[140.353163307,36.431165333],[140.358421699,36.432022279],[140.360277523,36.428814775],[140.365812023,36.431726973],[140.369949027,36.436097252],[140.371001751,36.427630333],[140.374060389,36.426523387],[140.378921025,36.433619198],[140.380496304,36.432273081],[140.380544916,36.433390865],[140.38301214,36.432991973],[140.381716861,36.433924468],[140.383254112,36.434166387],[140.38221022,36.434395],[140.383119948,36.436829441],[140.391147224,36.437293613],[140.394225032,36.438400279],[140.395669494,36.441047468],[140.398395914,36.441309135],[140.395237886,36.447406081],[140.386033671,36.451047198],[140.381342335,36.46428464],[140.389377951,36.46391936]]]]},"properties":{"n03_007":"08201","\u6700\u5927\u9707\u5EA6":"4","\u9707\u5EA6\u5024":4,"color":"#FAE696"}},{"type":"Feature","geometry":{"type":"MultiPolygon","coordinates":[[[[139.795167302,35.704660721],[139.807320026,35.718360559],[139.810927523,35.732164027],[139.816583165,35.741464838],[139.820362892,35.743428721],[139.824812309,35.736483721],[139.842154773,35.719310919],[139.83904642,35.717114279],[139.83549642,35.717869559],[139.833159442,35.715757892],[139.834167782,35.713437613],[139.839605006,35.710350108],[139.834552438,35.705290108],[139.835401582,35.703016505],[139.830682412,35.703008441],[139.818689611,35.70800764],[139.819694527,35.693033748],[139.811468949,35.691908748],[139.811876978,35.688557081],[139.809378612,35.68844236],[139.809466667,35.68699264],[139.805004968,35.686775721],[139.804809442,35.688502108],[139.800485253,35.688301838],[139.799169689,35.689717387],[139.796728586,35.688538225],[139.793480246,35.690814613],[139.790401336,35.689292946],[139.789646615,35.690187108],[139.788915253,35.694703775],[139.795167302,35.704660721]]]]},"properties":{"n03_007":"13107","\u6700\u5927\u9707\u5EA6":"6\u002B","\u9707\u5EA6\u5024":6.5,"color":"#A50021"}},{"type":"Feature","geometry":{"type":"MultiPolygon","coordinates":[[[[139.783336667,35.620997414],[139.792628119,35.60957891],[139.786729831,35.60184045],[139.777469637,35.613795865],[139.775099442,35.616131468],[139.773047328,35.615332838],[139.775057782,35.616179586],[139.77299,35.61587264],[139.774596057,35.616749135],[139.772887562,35.618533559],[139.774252114,35.619274],[139.771349689,35.623138306],[139.782376342,35.629508604],[139.784947367,35.626349441],[139.780991933,35.623882856],[139.783336667,35.620997414]]]]},"properties":{"n03_007":"13108","\u6700\u5927\u9707\u5EA6":"6\u002B","\u9707\u5EA6\u5024":6.5,"color":"#A50021"}},{"type":"Feature","geometry":{"type":"MultiPolygon","coordinates":[[[[139.816666667,35.533259135],[139.802451414,35.520966306],[139.79984703,35.522917505],[139.801788612,35.524648532],[139.800605694,35.526314613],[139.804295149,35.530175802],[139.807110415,35.530764333],[139.81980192,35.542383252],[139.823087497,35.543843721],[139.826027782,35.541570171],[139.816666667,35.533259135]]]]},"properties":{"n03_007":"13111","\u6700\u5927\u9707\u5EA6":"6\u002B","\u9707\u5EA6\u5024":6.5,"color":"#A50021"}},{"type":"Feature","geometry":{"type":"MultiPolygon","coordinates":[[[[139.713630169,35.745304613],[139.719512944,35.745042667],[139.720011803,35.741785171],[139.724324306,35.739747694],[139.727909079,35.744713775],[139.732635188,35.745088225],[139.731784358,35.743312946],[139.734573217,35.740685441],[139.741900195,35.742113505],[139.744417134,35.740788775],[139.744036278,35.738955441],[139.746574358,35.739846838],[139.752760441,35.735057387],[139.749194034,35.732873802],[139.744617639,35.735833225],[139.741485668,35.73072964],[139.739085383,35.731846586],[139.735968418,35.729354081],[139.737390052,35.726896586],[139.736038638,35.725296306],[139.73196725,35.72410436],[139.72648725,35.727051586],[139.722749728,35.725148802],[139.724724695,35.720008838],[139.718317419,35.717757171],[139.717472944,35.714788279],[139.722509611,35.712265775],[139.711657639,35.714818838],[139.710420973,35.713459135],[139.705876783,35.713439414],[139.704599637,35.723013559],[139.699816861,35.723546054],[139.695726524,35.721742441],[139.684408716,35.722513865],[139.681349857,35.727044387],[139.677344306,35.729372721],[139.680760272,35.738756027],[139.68961144,35.741323775],[139.692577588,35.743634333],[139.694534812,35.742226838],[139.698865914,35.742392946],[139.699221725,35.739725198],[139.700992866,35.739908252],[139.702131997,35.736384919],[139.703813943,35.735872135],[139.710428495,35.745792667],[139.713630169,35.745304613]]]]},"properties":{"n03_007":"13116","\u6700\u5927\u9707\u5EA6":"6\u002B","\u9707\u5EA6\u5024":6.5,"color":"#A50021"}},{"type":"Feature","geometry":{"type":"MultiPolygon","coordinates":[[[[139.770355058,35.753646838],[139.782854527,35.754140135],[139.788795914,35.752505135],[139.791232023,35.749653468],[139.788681167,35.74490736],[139.792423087,35.740775135],[139.802043645,35.738568468],[139.812212309,35.740954865],[139.814251479,35.739637919],[139.814407276,35.736682081],[139.809718612,35.728134586],[139.795065772,35.728971532],[139.791205811,35.731218225],[139.789461336,35.728743225],[139.784457134,35.727860171],[139.781455447,35.724617667],[139.776742672,35.724935721],[139.769772114,35.728126],[139.766052918,35.727531559],[139.763987393,35.730879892],[139.760937108,35.732206],[139.761321284,35.733809892],[139.771124669,35.737898775],[139.768176913,35.741462387],[139.765487756,35.741791],[139.763842192,35.744137387],[139.760315525,35.743451838],[139.757199144,35.745461838],[139.757800272,35.747610171],[139.755382503,35.747577108],[139.755167497,35.748925721],[139.750886667,35.749554054],[139.749637497,35.751187946],[139.750886978,35.753705721],[139.75758725,35.753169054],[139.757963943,35.754855171],[139.770355058,35.753646838]]]]},"properties":{"n03_007":"13118","\u6700\u5927\u9707\u5EA6":"6\u002B","\u9707\u5EA6\u5024":6.5,"color":"#A50021"}},{"type":"Feature","geometry":{"type":"MultiPolygon","coordinates":[[[[139.696859689,35.798904],[139.689469079,35.786796748],[139.695654332,35.782458441],[139.702751025,35.783915108],[139.706404228,35.766669027],[139.715212802,35.761633198],[139.722702477,35.753227946],[139.721409637,35.746311],[139.719512944,35.745042667],[139.710428495,35.745792667],[139.703813943,35.735872135],[139.702131997,35.736384919],[139.700992866,35.739908252],[139.699221725,35.739725198],[139.698865914,35.742392946],[139.694534812,35.742226838],[139.692577588,35.743634333],[139.68961144,35.741323775],[139.680478029,35.738714919],[139.679096667,35.740627135],[139.68084061,35.743817387],[139.675879222,35.745394613],[139.672136109,35.744526],[139.675024864,35.75188736],[139.673345447,35.754512081],[139.673533554,35.758931505],[139.668218392,35.767566748],[139.647914254,35.768615973],[139.642964228,35.770925973],[139.640845032,35.769159586],[139.634830246,35.768797387],[139.629356355,35.771735441],[139.62939642,35.776880973],[139.625164189,35.778009306],[139.624526693,35.780811252],[139.629066498,35.785737919],[139.631692361,35.786335946],[139.63229406,35.788954279],[139.637917717,35.791200108],[139.640856667,35.797942865],[139.647872283,35.797473414],[139.653362309,35.800225919],[139.657776524,35.800501748],[139.678381894,35.798822586],[139.68981358,35.800853721],[139.696859689,35.798904]]]]},"properties":{"n03_007":"13119","\u6700\u5927\u9707\u5EA6":"6\u002B","\u9707\u5EA6\u5024":6.5,"color":"#A50021"}},{"type":"Feature","geometry":{"type":"MultiPolygon","coordinates":[[[[139.776088249,35.812131505],[139.781137108,35.807229838],[139.79400131,35.805198414],[139.802303839,35.808553135],[139.814696083,35.808709225],[139.818603606,35.811766721],[139.82109808,35.811438387],[139.821055616,35.815077],[139.823391997,35.814152],[139.824855305,35.811003108],[139.82075192,35.805535333],[139.820486304,35.797539252],[139.826418223,35.793381468],[139.832765499,35.795679505],[139.837219416,35.800638387],[139.843870272,35.79949364],[139.846747756,35.796506414],[139.844219663,35.793587],[139.845265746,35.787706721],[139.848531284,35.781149505],[139.858020117,35.770414225],[139.858301751,35.766192838],[139.856414773,35.764435892],[139.85217978,35.765749225],[139.851299248,35.769882279],[139.84545869,35.769414532],[139.841928392,35.766517586],[139.837821141,35.765973135],[139.837477782,35.763187586],[139.83173,35.763708414],[139.829866615,35.757661225],[139.825772166,35.758027054],[139.826973307,35.762085387],[139.824369974,35.761786225],[139.822597419,35.755575946],[139.820252698,35.755978721],[139.819737173,35.760449],[139.813540195,35.759666225],[139.813375447,35.754643441],[139.820362892,35.743428721],[139.81449703,35.738804865],[139.811576744,35.74106764],[139.802043645,35.738568468],[139.792423087,35.740775135],[139.788473113,35.745789306],[139.790907588,35.748489306],[139.790870078,35.750769865],[139.784662581,35.753863468],[139.764413385,35.753994892],[139.749280052,35.756892108],[139.748887834,35.759810721],[139.759844864,35.766284306],[139.759279339,35.769305414],[139.757938495,35.770178198],[139.746406226,35.767012081],[139.736727082,35.770219306],[139.735704864,35.77220764],[139.738049079,35.780220694],[139.745819663,35.783282919],[139.746768301,35.786849865],[139.75500083,35.786895694],[139.755596135,35.790029027],[139.75996978,35.79433764],[139.760601193,35.79788264],[139.750655668,35.806668748],[139.750773191,35.810170694],[139.755201245,35.810731532],[139.755610726,35.812710414],[139.761274332,35.812888171],[139.767164942,35.817653441],[139.771306615,35.817202054],[139.776088249,35.812131505]]]]},"properties":{"n03_007":"13121","\u6700\u5927\u9707\u5EA6":"6\u002B","\u9707\u5EA6\u5024":6.5,"color":"#A50021"}},{"type":"Feature","geometry":{"type":"MultiPolygon","coordinates":[[[[139.855604747,35.638563613],[139.85891144,35.637486081],[139.857693696,35.635103559],[139.857643165,35.637348171],[139.852462218,35.638539919],[139.849919222,35.638391108],[139.849556394,35.635764919],[139.850704721,35.640224225],[139.855604747,35.638563613]]]]},"properties":{"n03_007":"13123","\u6700\u5927\u9707\u5EA6":"6\u002B","\u9707\u5EA6\u5024":6.5,"color":"#A50021"}}]}